District,Rural/Urban,%_of_households_with_Main_Sewer,%_of_households_with_Septic_Tank,%_of_households_with_Cess_Pool,%_of_households_with_VIP_Pit_Latrine,%_of_households_with_Pit_Latrine_Covered/Uncovered,%_of_households_with_Bucket,%_of_households_with_Bush,%_of_households_with_Other,Households,No_of_households_with_Main_Sewer,No_of_households_with_Septic_Tank,No_of_households_with_Cess_Pool,No_of_households_with_VIP_Pit_Latrine,No_of_households_with_Pit_Latrine_Covered/Uncovered,No_of_households_with_Bucket,No_of_households_with_Bush,No_of_households_with_Other,Province,County,Census_Table,MTEF,MTP,Longtitude,Latitude,Location,OBJECTID
MOMBASA,Rural,,,,,,,,,0,0,0,0,0,0,0,0,0,COAST,Mombasa,Table 9b: Urban Households by main mode of Human Waste Disposal,"Environment, Water and Sanitation","Environment, Water and Sanitation",39.6977,-3.9685,"(-3.9685, 39.6977)",0
CHALBI,Urban,,,,,,,,,0,0,0,0,0,0,0,0,0,EASTERN,Marsabit,Table 9b: Urban Households by main mode of Human Waste Disposal,"Environment, Water and Sanitation","Environment, Water and Sanitation",37.36288736,3.399917155,"(3.399917155, 37.36288736)",1
KURIA EAST,Urban,,,,,,,,,0,0,0,0,0,0,0,0,0,NYANZA,Migori,Table 9a: Rural Households by main mode of Human Waste Disposal,"Environment, Water and Sanitation","Environment, Water and Sanitation",34.65699509,-1.279753411,"(-1.279753411, 34.65699509)",2
MANGA,Rural,0%,0.3%,0%,5.2%,94.2%,0%,0.2%,0%,19295,3,53,7,1010,18176,1,45,0,NYANZA,Nyamira,Table 9a: Rural Households by main mode of Human Waste Disposal,"Environment, Water and Sanitation","Environment, Water and Sanitation",34.90211779,-0.688310175,"(-0.688310175, 34.90211779)",3
TRANS NZOIA EAST,Urban,,,,,,,,,0,0,0,0,0,0,0,0,0,RIFT VALLEY,Trans Nzoia,Table 9a: Rural Households by main mode of Human Waste Disposal,"Environment, Water and Sanitation","Environment, Water and Sanitation",35.18029104,1.022635873,"(1.022635873, 35.18029104)",4
NANDI SOUTH,Urban,,,,,,,,,0,0,0,0,0,0,0,0,0,RIFT VALLEY,Nandi,Table 9a: Rural Households by main mode of Human Waste Disposal,"Environment, Water and Sanitation","Environment, Water and Sanitation",34.96800793,0.048811478,"(0.048811478, 34.96800793)",5
HAMISI,Urban,,,,,,,,,0,0,0,0,0,0,0,0,0,WESTERN,Vihiga,Table 9a: Rural Households by main mode of Human Waste Disposal,"Environment, Water and Sanitation","Environment, Water and Sanitation",34.82143608,0.099070606,"(0.099070606, 34.82143608)",6
NYANDARUA NORTH,Urban,0.9%,2.9%,0.3%,14.4%,81.4%,0%,0.2%,0%,24094,211,688,61,3460,19605,8,51,10,CENTRAL,Nyandarua,Table 9b: Urban Households by main mode of Human Waste Disposal,"Environment, Water and Sanitation","Environment, Water and Sanitation",36.42343108,-0.144560572,"(-0.144560572, 36.42343108)",7
NYANDARUA SOUTH,Urban,0.4%,1.7%,0%,9.3%,88.4%,0%,0.1%,0%,5346,23,93,1,498,4724,2,4,1,CENTRAL,Nyandarua,Table 9b: Urban Households by main mode of Human Waste Disposal,"Environment, Water and Sanitation","Environment, Water and Sanitation",36.55651343,-0.533045224,"(-0.533045224, 36.55651343)",8
NYERI NORTH,Urban,16%,6.7%,2%,6.8%,67.4%,0.8%,0.4%,0%,14301,2285,959,279,967,9635,121,55,0,CENTRAL,Nyeri,Table 9b: Urban Households by main mode of Human Waste Disposal,"Environment, Water and Sanitation","Environment, Water and Sanitation",36.9811441,-0.266587082,"(-0.266587082, 36.9811441)",9
NYERI SOUTH,Urban,16.8%,11.4%,0.4%,5.6%,65.6%,0%,0.1%,0%,40067,6713,4586,170,2262,26286,12,33,5,CENTRAL,Nyeri,Table 9b: Urban Households by main mode of Human Waste Disposal,"Environment, Water and Sanitation","Environment, Water and Sanitation",36.89927916,-0.500808092,"(-0.500808092, 36.89927916)",10
KIRINYAGA,Urban,3.6%,13.5%,0.4%,7.3%,74.9%,0.1%,0.1%,0.2%,27555,981,3712,112,2012,20627,37,28,46,CENTRAL,Kirinyaga,Table 9b: Urban Households by main mode of Human Waste Disposal,"Environment, Water and Sanitation","Environment, Water and Sanitation",37.32018369,-0.519266797,"(-0.519266797, 37.32018369)",11
MURANGA NORTH,Urban,27.1%,9.3%,0.4%,8.3%,54.6%,0.2%,0%,0%,10671,2889,995,48,882,5822,26,4,5,CENTRAL,Murang'a,Table 9b: Urban Households by main mode of Human Waste Disposal,"Environment, Water and Sanitation","Environment, Water and Sanitation",36.98118146,-0.675384535,"(-0.675384535, 36.98118146)",12
MURANGA SOUTH,Urban,1.4%,3.3%,0.3%,8.3%,86.4%,0.1%,0.2%,0.1%,30464,429,998,80,2519,26321,25,68,24,CENTRAL,Murang'a,Table 9b: Urban Households by main mode of Human Waste Disposal,"Environment, Water and Sanitation","Environment, Water and Sanitation",37.05522802,-0.845673319,"(-0.845673319, 37.05522802)",13
KIAMBU EAST(KIAMBAA),Urban,4.3%,11.3%,0.5%,7.8%,75.9%,0.1%,0%,0%,62874,2731,7092,291,4909,47720,94,25,12,CENTRAL,Kiambu,Table 9b: Urban Households by main mode of Human Waste Disposal,"Environment, Water and Sanitation","Environment, Water and Sanitation",36.80546766,-1.158558742,"(-1.158558742, 36.80546766)",14
KIKUYU,Urban,1.5%,10%,0.7%,6.8%,80.8%,0.1%,0.1%,0.1%,76794,1118,7670,519,5248,62054,64,76,45,CENTRAL,Kiambu,Table 9b: Urban Households by main mode of Human Waste Disposal,"Environment, Water and Sanitation","Environment, Water and Sanitation",36.63360077,-1.236882983,"(-1.236882983, 36.63360077)",15
KIAMBU WEST,Urban,5.6%,5.4%,0.3%,12.6%,76%,0%,0.1%,0%,23077,1297,1248,78,2897,17537,4,12,4,CENTRAL,Kiambu,Table 9b: Urban Households by main mode of Human Waste Disposal,"Environment, Water and Sanitation","Environment, Water and Sanitation",36.62625892,-1.139177531,"(-1.139177531, 36.62625892)",16
LARI,Urban,,,,,,,,,0,0,0,0,0,0,0,0,0,CENTRAL,Kiambu,Table 9b: Urban Households by main mode of Human Waste Disposal,"Environment, Water and Sanitation","Environment, Water and Sanitation",36.67684469,-0.92811243,"(-0.92811243, 36.67684469)",17
GITHUNGURI,Urban,3.3%,7.1%,0.1%,9.8%,79.4%,0.3%,0%,0%,6049,199,428,6,595,4803,16,1,1,CENTRAL,Kiambu,Table 9b: Urban Households by main mode of Human Waste Disposal,"Environment, Water and Sanitation","Environment, Water and Sanitation",36.79433274,-1.066938632,"(-1.066938632, 36.79433274)",18
THIKA EAST,Urban,0.2%,17%,0.4%,33.3%,49%,0%,0%,0.2%,1215,3,206,5,404,595,0,0,2,CENTRAL,Kiambu,Table 9b: Urban Households by main mode of Human Waste Disposal,"Environment, Water and Sanitation","Environment, Water and Sanitation",37.23100647,-1.029757173,"(-1.029757173, 37.23100647)",19
THIKA WEST,Urban,32.7%,12.2%,0.5%,9.5%,44.4%,0.1%,0.5%,0.1%,64768,21167,7912,327,6135,28786,40,348,53,CENTRAL,Kiambu,Table 9b: Urban Households by main mode of Human Waste Disposal,"Environment, Water and Sanitation","Environment, Water and Sanitation",37.04502993,-1.099288796,"(-1.099288796, 37.04502993)",20
RUIRU,Urban,5.1%,22.3%,0.6%,9.9%,61.6%,0.2%,0.2%,0.1%,75184,3825,16800,460,7461,46286,115,163,74,CENTRAL,Kiambu,Table 9b: Urban Households by main mode of Human Waste Disposal,"Environment, Water and Sanitation","Environment, Water and Sanitation",36.99460397,-1.167110142,"(-1.167110142, 36.99460397)",21
GATANGA,Urban,15.4%,58.5%,0%,4.2%,21.6%,0%,0.4%,0%,547,84,320,0,23,118,0,2,0,CENTRAL,Murang'a,Table 9b: Urban Households by main mode of Human Waste Disposal,"Environment, Water and Sanitation","Environment, Water and Sanitation",36.88791928,-0.876497537,"(-0.876497537, 36.88791928)",22
GATUNDU,Urban,11.8%,10.1%,0.2%,12.3%,65.5%,0.1%,0.1%,0%,1967,232,198,4,242,1289,1,1,0,CENTRAL,Kiambu,Table 9b: Urban Households by main mode of Human Waste Disposal,"Environment, Water and Sanitation","Environment, Water and Sanitation",36.85558237,-0.959326055,"(-0.959326055, 36.85558237)",23
NYANDARUA NORTH,Rural,0.1%,0.2%,0%,4.9%,94.4%,0.1%,0.2%,0%,52503,46,117,26,2579,49551,66,104,14,CENTRAL,Nyandarua,Table 9b: Urban Households by main mode of Human Waste Disposal,"Environment, Water and Sanitation","Environment, Water and Sanitation",36.42343108,-0.144560572,"(-0.144560572, 36.42343108)",24
NYANDARUA SOUTH,Rural,0.1%,0.2%,0%,2.8%,96.7%,0.1%,0.1%,0%,61936,66,124,22,1729,59877,40,64,14,CENTRAL,Nyandarua,Table 9b: Urban Households by main mode of Human Waste Disposal,"Environment, Water and Sanitation","Environment, Water and Sanitation",36.55651343,-0.533045224,"(-0.533045224, 36.55651343)",25
NYERI NORTH,Rural,0.5%,1%,0.1%,3.8%,94.1%,0%,0.4%,0%,81307,427,810,73,3051,76539,38,351,18,CENTRAL,Nyeri,Table 9b: Urban Households by main mode of Human Waste Disposal,"Environment, Water and Sanitation","Environment, Water and Sanitation",36.9811441,-0.266587082,"(-0.266587082, 36.9811441)",26
NYERI SOUTH,Rural,0.3%,1.1%,0.1%,7.3%,91.1%,0%,0.1%,0%,66028,208,728,62,4800,60147,25,47,11,CENTRAL,Nyeri,Table 9b: Urban Households by main mode of Human Waste Disposal,"Environment, Water and Sanitation","Environment, Water and Sanitation",36.89927916,-0.500808092,"(-0.500808092, 36.89927916)",27
KIRINYAGA,Rural,0.2%,1%,0.1%,5.8%,92%,0.2%,0.6%,0.1%,126665,241,1273,140,7390,116533,208,779,101,CENTRAL,Kirinyaga,Table 9b: Urban Households by main mode of Human Waste Disposal,"Environment, Water and Sanitation","Environment, Water and Sanitation",37.32018369,-0.519266797,"(-0.519266797, 37.32018369)",28
MURANGA NORTH,Rural,0.3%,0.7%,0.2%,6.8%,91.8%,0%,0.1%,0%,87030,270,571,205,5921,79907,23,108,25,CENTRAL,Murang'a,Table 9b: Urban Households by main mode of Human Waste Disposal,"Environment, Water and Sanitation","Environment, Water and Sanitation",36.98118146,-0.675384535,"(-0.675384535, 36.98118146)",29
MURANGA SOUTH,Rural,0.2%,0.5%,0.1%,7.3%,91.7%,0%,0.3%,0%,84114,136,384,62,6145,77097,31,220,39,CENTRAL,Murang'a,Table 9b: Urban Households by main mode of Human Waste Disposal,"Environment, Water and Sanitation","Environment, Water and Sanitation",37.05522802,-0.845673319,"(-0.845673319, 37.05522802)",30
KIAMBU EAST(KIAMBAA),Rural,0.4%,3.3%,0.1%,7.1%,88.5%,0.2%,0.3%,0%,12468,48,415,17,890,11030,22,42,4,CENTRAL,Kiambu,Table 9b: Urban Households by main mode of Human Waste Disposal,"Environment, Water and Sanitation","Environment, Water and Sanitation",36.80546766,-1.158558742,"(-1.158558742, 36.80546766)",31
KIKUYU,Rural,0%,35.5%,0%,0.8%,63.7%,0%,0%,0%,251,0,89,0,2,160,0,0,0,CENTRAL,Kiambu,Table 9b: Urban Households by main mode of Human Waste Disposal,"Environment, Water and Sanitation","Environment, Water and Sanitation",36.63360077,-1.236882983,"(-1.236882983, 36.63360077)",32
KIAMBU WEST,Rural,1.5%,5.7%,0.1%,11.3%,81.1%,0%,0.2%,0.1%,13465,204,770,11,1520,10915,3,30,12,CENTRAL,Kiambu,Table 9b: Urban Households by main mode of Human Waste Disposal,"Environment, Water and Sanitation","Environment, Water and Sanitation",36.62625892,-1.139177531,"(-1.139177531, 36.62625892)",33
LARI,Rural,0.3%,1.9%,0.1%,6.2%,91.2%,0.1%,0.1%,0%,30779,106,594,41,1895,28069,30,34,10,CENTRAL,Kiambu,Table 9b: Urban Households by main mode of Human Waste Disposal,"Environment, Water and Sanitation","Environment, Water and Sanitation",36.67684469,-0.92811243,"(-0.92811243, 36.67684469)",34
GITHUNGURI,Rural,0.2%,0.9%,0.1%,4.3%,94.2%,0.1%,0.1%,0%,33301,71,312,22,1447,31359,48,27,15,CENTRAL,Kiambu,Table 9b: Urban Households by main mode of Human Waste Disposal,"Environment, Water and Sanitation","Environment, Water and Sanitation",36.79433274,-1.066938632,"(-1.066938632, 36.79433274)",35
THIKA EAST,Rural,0.4%,0.9%,0.1%,5.7%,91.5%,0.1%,1.3%,0.1%,19226,81,164,24,1090,17599,13,243,12,CENTRAL,Kiambu,Table 9b: Urban Households by main mode of Human Waste Disposal,"Environment, Water and Sanitation","Environment, Water and Sanitation",37.23100647,-1.029757173,"(-1.029757173, 37.23100647)",36
THIKA WEST,Rural,0.6%,2.6%,0.1%,5.6%,89.8%,0%,1.1%,0.1%,7283,44,190,8,408,6542,2,80,9,CENTRAL,Kiambu,Table 9b: Urban Households by main mode of Human Waste Disposal,"Environment, Water and Sanitation","Environment, Water and Sanitation",37.04502993,-1.099288796,"(-1.099288796, 37.04502993)",37
RUIRU,Rural,,,,,,,,,0,0,0,0,0,0,0,0,0,CENTRAL,Kiambu,Table 9b: Urban Households by main mode of Human Waste Disposal,"Environment, Water and Sanitation","Environment, Water and Sanitation",36.99460397,-1.167110142,"(-1.167110142, 36.99460397)",38
GATANGA,Rural,0.5%,1%,0.1%,5.9%,92.3%,0%,0%,0%,29664,159,310,24,1761,27378,11,13,8,CENTRAL,Murang'a,Table 9b: Urban Households by main mode of Human Waste Disposal,"Environment, Water and Sanitation","Environment, Water and Sanitation",36.88791928,-0.876497537,"(-0.876497537, 36.88791928)",39
GATUNDU,Rural,0.3%,0.8%,0.1%,4.5%,94.1%,0.1%,0.1%,0%,53749,162,430,49,2434,50588,39,36,11,CENTRAL,Kiambu,Table 9b: Urban Households by main mode of Human Waste Disposal,"Environment, Water and Sanitation","Environment, Water and Sanitation",36.85558237,-0.959326055,"(-0.959326055, 36.85558237)",40
MOMBASA,Urban,14.4%,18.2%,1.7%,6.4%,55.7%,1.2%,2.2%,0.2%,140535,20255,25610,2453,8926,78239,1645,3160,247,COAST,Mombasa,Table 9b: Urban Households by main mode of Human Waste Disposal,"Environment, Water and Sanitation","Environment, Water and Sanitation",39.6977,-3.9685,"(-3.9685, 39.6977)",41
KILINDINI,Urban,13.2%,7.6%,1%,5.4%,69.5%,1.1%,2%,0.2%,128165,16970,9697,1245,6962,89086,1395,2563,247,COAST,Mombasa,Table 9b: Urban Households by main mode of Human Waste Disposal,"Environment, Water and Sanitation","Environment, Water and Sanitation",39.6365,-4.0383,"(-4.0383, 39.6365)",42
KWALE,Urban,0.3%,7.1%,0.1%,2.3%,75.1%,0.1%,15%,0.1%,4053,14,287,3,94,3043,3,606,3,COAST,Kwale ,Table 9b: Urban Households by main mode of Human Waste Disposal,"Environment, Water and Sanitation","Environment, Water and Sanitation",39.40753681,-4.221293887,"(-4.221293887, 39.40753681)",43
KINANGO,Urban,0.2%,4.3%,0.1%,7.4%,53.9%,0.2%,33.9%,0%,1610,4,69,2,119,868,3,545,0,COAST,Kwale ,Table 9b: Urban Households by main mode of Human Waste Disposal,"Environment, Water and Sanitation","Environment, Water and Sanitation",39.10335046,-3.96233059,"(-3.96233059, 39.10335046)",44
MSAMBWENI,Urban,1.8%,6.5%,1%,7.5%,68.9%,0.4%,13.7%,0.2%,23425,415,1528,239,1747,16138,88,3212,58,COAST,Kwale ,Table 9b: Urban Households by main mode of Human Waste Disposal,"Environment, Water and Sanitation","Environment, Water and Sanitation",39.16173404,-4.397198722,"(-4.397198722, 39.16173404)",45
KILIFI,Urban,4.9%,12.7%,0.8%,5.3%,71.5%,1.6%,2.9%,0.3%,28079,1381,3560,224,1497,20067,456,816,78,COAST,Kilifi,Table 9b: Urban Households by main mode of Human Waste Disposal,"Environment, Water and Sanitation","Environment, Water and Sanitation",39.60114414,-3.494969907,"(-3.494969907, 39.60114414)",46
KALOLENI,Urban,2.1%,14%,0.6%,6.4%,72.8%,1.3%,2.6%,0.2%,9534,199,1339,60,607,6941,123,244,21,COAST,Kilifi,Table 9b: Urban Households by main mode of Human Waste Disposal,"Environment, Water and Sanitation","Environment, Water and Sanitation",39.54477529,-3.768179495,"(-3.768179495, 39.54477529)",47
MALINDI,Urban,3.4%,22.9%,1.1%,13.5%,48.5%,1.1%,9.3%,0.1%,34626,1175,7931,372,4682,16803,393,3222,48,COAST,Kilifi,Table 9b: Urban Households by main mode of Human Waste Disposal,"Environment, Water and Sanitation","Environment, Water and Sanitation",39.74330931,-2.934879654,"(-2.934879654, 39.74330931)",48
TANA RIVER,Urban,0.8%,1.4%,0.1%,4.2%,62.7%,1%,29.5%,0.3%,7235,61,98,7,303,4539,69,2135,23,COAST,Tana River,Table 9b: Urban Households by main mode of Human Waste Disposal,"Environment, Water and Sanitation","Environment, Water and Sanitation",39.34922935,-0.942366175,"(-0.942366175, 39.34922935)",49
TANA DELTA,Urban,0.3%,1.2%,0.3%,3.1%,79.3%,0.2%,15.5%,0%,644,2,8,2,20,511,1,100,0,COAST,Tana River,Table 9b: Urban Households by main mode of Human Waste Disposal,"Environment, Water and Sanitation","Environment, Water and Sanitation",39.51654731,-2.317407934,"(-2.317407934, 39.51654731)",50
LAMU,Urban,1.2%,13.4%,1.1%,10.8%,67.3%,0.7%,5.4%,0.2%,4793,57,640,51,517,3224,35,259,10,COAST,Lamu,Table 9b: Urban Households by main mode of Human Waste Disposal,"Environment, Water and Sanitation","Environment, Water and Sanitation",40.74388079,-2.018858269,"(-2.018858269, 40.74388079)",51
TAITA,Urban,4.6%,14.1%,0.9%,6.4%,73.6%,0.1%,0.2%,0%,12796,593,1810,120,814,9418,13,25,3,COAST,Taita Taveta,Table 9b: Urban Households by main mode of Human Waste Disposal,"Environment, Water and Sanitation","Environment, Water and Sanitation",38.56492447,-3.416968032,"(-3.416968032, 38.56492447)",52
TAVETA,Urban,1.9%,5.4%,0.3%,5.9%,84.9%,0%,1.5%,0.1%,5542,103,302,15,325,4707,1,85,4,COAST,Taita Taveta,Table 9b: Urban Households by main mode of Human Waste Disposal,"Environment, Water and Sanitation","Environment, Water and Sanitation",37.97519351,-3.41452877,"(-3.41452877, 37.97519351)",53
KILINDINI,Rural,,,,,,,,,0,0,0,0,0,0,0,0,0,COAST,Mombasa,Table 9b: Urban Households by main mode of Human Waste Disposal,"Environment, Water and Sanitation","Environment, Water and Sanitation",39.6365,-4.0383,"(-4.0383, 39.6365)",54
KWALE,Rural,0.4%,1.4%,0.7%,3.8%,54.3%,0.1%,39.1%,0.2%,24506,92,334,176,921,13297,33,9594,59,COAST,Kwale ,Table 9b: Urban Households by main mode of Human Waste Disposal,"Environment, Water and Sanitation","Environment, Water and Sanitation",39.40753681,-4.221293887,"(-4.221293887, 39.40753681)",55
KINANGO,Rural,0.1%,1.1%,0.3%,1.3%,20.1%,0.1%,77%,0%,32394,32,358,84,423,6507,22,24953,15,COAST,Kwale ,Table 9b: Urban Households by main mode of Human Waste Disposal,"Environment, Water and Sanitation","Environment, Water and Sanitation",39.10335046,-3.96233059,"(-3.96233059, 39.10335046)",56
MSAMBWENI,Rural,0.2%,0.4%,0.2%,1.8%,32.3%,0.1%,65%,0.1%,36059,57,147,70,636,11639,47,23432,31,COAST,Kwale ,Table 9b: Urban Households by main mode of Human Waste Disposal,"Environment, Water and Sanitation","Environment, Water and Sanitation",39.16173404,-4.397198722,"(-4.397198722, 39.16173404)",57
KILIFI,Rural,0.2%,1.3%,0.2%,1.8%,53.1%,0.1%,43.1%,0.1%,55663,107,746,133,983,29554,59,24001,80,COAST,Kilifi,Table 9b: Urban Households by main mode of Human Waste Disposal,"Environment, Water and Sanitation","Environment, Water and Sanitation",39.60114414,-3.494969907,"(-3.494969907, 39.60114414)",58
KALOLENI,Rural,0.8%,1.3%,0.1%,2.5%,65.6%,0.1%,29.5%,0%,33158,253,443,34,823,21763,46,9785,11,COAST,Kilifi,Table 9b: Urban Households by main mode of Human Waste Disposal,"Environment, Water and Sanitation","Environment, Water and Sanitation",39.54477529,-3.768179495,"(-3.768179495, 39.54477529)",59
MALINDI,Rural,0.3%,1.9%,0.3%,2.5%,18.5%,0.2%,76.2%,0.1%,38704,119,745,107,977,7169,75,29477,35,COAST,Kilifi,Table 9b: Urban Households by main mode of Human Waste Disposal,"Environment, Water and Sanitation","Environment, Water and Sanitation",39.74330931,-2.934879654,"(-2.934879654, 39.74330931)",60
TANA RIVER,Rural,0.1%,0.1%,0%,0.8%,18%,0.1%,80.9%,0.1%,21389,13,16,4,167,3840,13,17310,26,COAST,Tana River,Table 9b: Urban Households by main mode of Human Waste Disposal,"Environment, Water and Sanitation","Environment, Water and Sanitation",39.34922935,-0.942366175,"(-0.942366175, 39.34922935)",61
TANA DELTA,Rural,0.3%,0.8%,0.1%,1.3%,21.4%,0.1%,75.8%,0.3%,18146,56,139,17,228,3885,21,13746,54,COAST,Tana River,Table 9b: Urban Households by main mode of Human Waste Disposal,"Environment, Water and Sanitation","Environment, Water and Sanitation",39.51654731,-2.317407934,"(-2.317407934, 39.51654731)",62
LAMU,Rural,0.1%,0.7%,0.3%,1.9%,70.1%,0.3%,26.2%,0.4%,17391,18,119,46,335,12185,57,4563,68,COAST,Lamu,Table 9b: Urban Households by main mode of Human Waste Disposal,"Environment, Water and Sanitation","Environment, Water and Sanitation",40.74388079,-2.018858269,"(-2.018858269, 40.74388079)",63
TAITA,Rural,0.6%,2.5%,0.1%,15.9%,74.2%,0%,6.5%,0.2%,41936,231,1045,32,6672,31124,13,2744,75,COAST,Taita Taveta,Table 9b: Urban Households by main mode of Human Waste Disposal,"Environment, Water and Sanitation","Environment, Water and Sanitation",38.56492447,-3.416968032,"(-3.416968032, 38.56492447)",64
TAVETA,Rural,0.2%,0.6%,0.2%,2.2%,86.6%,0%,10.1%,0%,10816,26,66,18,234,9370,4,1094,4,COAST,Taita Taveta,Table 9b: Urban Households by main mode of Human Waste Disposal,"Environment, Water and Sanitation","Environment, Water and Sanitation",37.97519351,-3.41452877,"(-3.41452877, 37.97519351)",65
MARSABIT,Urban,0%,0.9%,0.1%,8.2%,90.2%,0%,0.4%,0.2%,3447,1,31,2,283,3109,0,14,7,EASTERN,Marsabit,Table 9b: Urban Households by main mode of Human Waste Disposal,"Environment, Water and Sanitation","Environment, Water and Sanitation",37.94495682,2.350360288,"(2.350360288, 37.94495682)",66
LAISAMIS,Urban,0%,0.7%,0.1%,0.2%,32.1%,0%,66.9%,0%,1494,0,10,1,3,480,0,1000,0,EASTERN,Marsabit,Table 9b: Urban Households by main mode of Human Waste Disposal,"Environment, Water and Sanitation","Environment, Water and Sanitation",37.48344825,2.238105939,"(2.238105939, 37.48344825)",67
MOYALE,Urban,0.1%,0.5%,0%,4.7%,88%,0.1%,6.2%,0.5%,6856,6,37,0,321,6031,5,425,31,EASTERN,Marsabit,Table 9b: Urban Households by main mode of Human Waste Disposal,"Environment, Water and Sanitation","Environment, Water and Sanitation",38.80269655,3.117620629,"(3.117620629, 38.80269655)",68
ISIOLO,Urban,11.9%,2.4%,0.1%,2.3%,75.9%,0.2%,6.9%,0.3%,12718,1515,309,9,297,9652,20,879,37,EASTERN,Isiolo,Table 9b: Urban Households by main mode of Human Waste Disposal,"Environment, Water and Sanitation","Environment, Water and Sanitation",38.46170147,1.255057085,"(1.255057085, 38.46170147)",69
GARBATULLA,Urban,0.1%,0.3%,0.2%,9.6%,64%,0.1%,25.7%,0%,1787,1,6,3,172,1144,2,459,0,EASTERN,Isiolo,Table 9b: Urban Households by main mode of Human Waste Disposal,"Environment, Water and Sanitation","Environment, Water and Sanitation",38.65180184,0.627639147,"(0.627639147, 38.65180184)",70
MERU CENTRAL,Urban,,,,,,,,,0,0,0,0,0,0,0,0,0,EASTERN,Meru,Table 9b: Urban Households by main mode of Human Waste Disposal,"Environment, Water and Sanitation","Environment, Water and Sanitation",37.58330732,0.001443681,"(0.001443681, 37.58330732)",71
IMENTI NORTH,Urban,7%,10.1%,1.4%,12.7%,68.2%,0.4%,0.1%,0.1%,21881,1537,2220,304,2784,14926,80,17,13,EASTERN,Meru,Table 9b: Urban Households by main mode of Human Waste Disposal,"Environment, Water and Sanitation","Environment, Water and Sanitation",37.43552549,0.083380846,"(0.083380846, 37.43552549)",72
IMENTI SOUTH,Urban,0.6%,12.4%,0.4%,29.6%,56.6%,0.1%,0.4%,0%,4404,25,546,16,1302,2492,5,17,1,EASTERN,Meru,Table 9b: Urban Households by main mode of Human Waste Disposal,"Environment, Water and Sanitation","Environment, Water and Sanitation",37.60133849,-0.122681965,"(-0.122681965, 37.60133849)",73
MERU SOUTH,Urban,0.7%,5.2%,0.3%,6.6%,86.6%,0%,0.4%,0.1%,12102,83,629,34,798,10485,5,54,14,EASTERN,Meru,Table 9b: Urban Households by main mode of Human Waste Disposal,"Environment, Water and Sanitation","Environment, Water and Sanitation",37.67297626,-0.330686401,"(-0.330686401, 37.67297626)",74
MAARA,Urban,0.8%,2.5%,1.4%,7.8%,87.3%,0%,0.1%,0%,8642,72,213,121,678,7545,3,8,2,EASTERN,Meru,Table 9b: Urban Households by main mode of Human Waste Disposal,"Environment, Water and Sanitation","Environment, Water and Sanitation",37.62522793,-0.228019729,"(-0.228019729, 37.62522793)",75
IGEMBE,Urban,0.6%,3.6%,0.6%,20.5%,74.3%,0%,0.3%,0.1%,8160,48,293,45,1672,6066,2,27,7,EASTERN,Meru,Table 9b: Urban Households by main mode of Human Waste Disposal,"Environment, Water and Sanitation","Environment, Water and Sanitation",38.05720532,0.303772382,"(0.303772382, 38.05720532)",76
TIGANIA,Urban,0.1%,0.3%,0.1%,10.1%,88.7%,0.2%,0.4%,0.1%,954,1,3,1,96,846,2,4,1,EASTERN,Meru,Table 9b: Urban Households by main mode of Human Waste Disposal,"Environment, Water and Sanitation","Environment, Water and Sanitation",37.77333779,0.256927453,"(0.256927453, 37.77333779)",77
THARAKA,Urban,0.1%,0.7%,0%,3.9%,92.5%,0%,2.7%,0%,2166,2,15,1,84,2004,0,59,1,EASTERN,Tharaka Nithi,Table 9b: Urban Households by main mode of Human Waste Disposal,"Environment, Water and Sanitation","Environment, Water and Sanitation",38.01828449,-0.136787024,"(-0.136787024, 38.01828449)",78
EMBU,Urban,11.1%,13.1%,1.5%,9%,64.9%,0.1%,0.2%,0%,23965,2672,3131,362,2168,15554,17,58,3,EASTERN,Embu,Table 9b: Urban Households by main mode of Human Waste Disposal,"Environment, Water and Sanitation","Environment, Water and Sanitation",37.50475286,-0.409100139,"(-0.409100139, 37.50475286)",79
MBEERE,Urban,1.6%,2.8%,0.2%,24.8%,70.5%,0%,0.1%,0%,966,15,27,2,240,681,0,1,0,EASTERN,Embu,Table 9b: Urban Households by main mode of Human Waste Disposal,"Environment, Water and Sanitation","Environment, Water and Sanitation",37.66541038,-0.666137176,"(-0.666137176, 37.66541038)",80
KITUI,Urban,1.1%,3.2%,0.2%,8.8%,81.4%,0.1%,5.2%,0.1%,27526,296,871,49,2434,22406,22,1427,21,EASTERN,Kitui,Table 9b: Urban Households by main mode of Human Waste Disposal,"Environment, Water and Sanitation","Environment, Water and Sanitation",38.30094003,-1.392710301,"(-1.392710301, 38.30094003)",81
MUTOMO,Urban,0%,0.6%,5.8%,1.9%,91.7%,0%,0%,0%,469,0,3,27,9,430,0,0,0,EASTERN,Kitui,Table 9b: Urban Households by main mode of Human Waste Disposal,"Environment, Water and Sanitation","Environment, Water and Sanitation",38.53912323,-2.179047638,"(-2.179047638, 38.53912323)",82
MWINGI,Urban,0.3%,4.1%,0.3%,18.3%,76.1%,0%,0.9%,0%,5522,17,226,14,1010,4203,1,49,2,EASTERN,Kitui,Table 9b: Urban Households by main mode of Human Waste Disposal,"Environment, Water and Sanitation","Environment, Water and Sanitation",38.36852014,-0.907180566,"(-0.907180566, 38.36852014)",83
KYUSO,Urban,0%,1.7%,0%,0.3%,96.3%,0%,1.7%,0%,350,0,6,0,1,337,0,6,0,EASTERN,Kitui,Table 9b: Urban Households by main mode of Human Waste Disposal,"Environment, Water and Sanitation","Environment, Water and Sanitation",38.27042885,-0.440861626,"(-0.440861626, 38.27042885)",84
MACHAKOS,Urban,13.4%,9.5%,0.9%,8%,66.8%,0.2%,1.1%,0.2%,84314,11280,8045,767,6719,56287,159,916,141,EASTERN,Machakos,Table 9b: Urban Households by main mode of Human Waste Disposal,"Environment, Water and Sanitation","Environment, Water and Sanitation",37.16409824,-1.50054564,"(-1.50054564, 37.16409824)",85
MWALA,Urban,0.3%,0.8%,0.1%,13.4%,84.7%,0.4%,0.4%,0%,1833,5,15,1,245,1553,7,7,0,EASTERN,Machakos,Table 9b: Urban Households by main mode of Human Waste Disposal,"Environment, Water and Sanitation","Environment, Water and Sanitation",37.52391049,-1.399783931,"(-1.399783931, 37.52391049)",86
YATTA,Urban,0.1%,0.8%,0.1%,13.9%,82.9%,0.1%,2%,0.1%,13307,8,108,11,1854,11035,15,260,16,EASTERN,Machakos,Table 9b: Urban Households by main mode of Human Waste Disposal,"Environment, Water and Sanitation","Environment, Water and Sanitation",37.60220541,-1.060809489,"(-1.060809489, 37.60220541)",87
KANGUNDO,Urban,0.5%,0.6%,0.1%,10.2%,86.1%,0.1%,2.1%,0.3%,50822,256,304,40,5200,43770,73,1048,131,EASTERN,Machakos,Table 9b: Urban Households by main mode of Human Waste Disposal,"Environment, Water and Sanitation","Environment, Water and Sanitation",37.27203719,-1.237582196,"(-1.237582196, 37.27203719)",88
MAKUENI,Urban,0.4%,0.2%,0.1%,15.4%,82.5%,0%,1.2%,0%,15463,65,38,13,2388,12759,4,190,6,EASTERN,Makueni,Table 9b: Urban Households by main mode of Human Waste Disposal,"Environment, Water and Sanitation","Environment, Water and Sanitation",37.67253055,-1.881125246,"(-1.881125246, 37.67253055)",89
MBOONI,Urban,0.2%,1.7%,0%,30.9%,67.2%,0%,0%,0%,537,1,9,0,166,361,0,0,0,EASTERN,Makueni,Table 9b: Urban Households by main mode of Human Waste Disposal,"Environment, Water and Sanitation","Environment, Water and Sanitation",37.60666503,-1.649117358,"(-1.649117358, 37.60666503)",90
KIBWEZI,Urban,8.2%,2.3%,0.5%,15.6%,72.4%,0.4%,0.6%,0%,7136,584,166,37,1112,5167,25,43,2,EASTERN,Makueni,Table 9b: Urban Households by main mode of Human Waste Disposal,"Environment, Water and Sanitation","Environment, Water and Sanitation",38.02538524,-2.468788914,"(-2.468788914, 38.02538524)",91
NZAUI,Urban,3.3%,0.8%,1.8%,16.3%,77%,0.1%,0.6%,0.1%,3539,117,29,64,577,2725,2,20,5,EASTERN,Makueni,Table 9b: Urban Households by main mode of Human Waste Disposal,"Environment, Water and Sanitation","Environment, Water and Sanitation",37.41612392,-1.928374635,"(-1.928374635, 37.41612392)",92
MARSABIT,Rural,0.1%,0.1%,0.1%,3.1%,40%,0%,56.4%,0.1%,6558,5,9,6,204,2625,2,3698,9,EASTERN,Marsabit,Table 9b: Urban Households by main mode of Human Waste Disposal,"Environment, Water and Sanitation","Environment, Water and Sanitation",37.94495682,2.350360288,"(2.350360288, 37.94495682)",93
CHALBI,Rural,0%,0.1%,0.1%,2.9%,14.5%,0.1%,82.1%,0.3%,15586,4,15,9,456,2256,10,12790,46,EASTERN,Marsabit,Table 9b: Urban Households by main mode of Human Waste Disposal,"Environment, Water and Sanitation","Environment, Water and Sanitation",37.36288736,3.399917155,"(3.399917155, 37.36288736)",94
LAISAMIS,Rural,0%,0.1%,0%,1.2%,8.2%,0%,90.4%,0.1%,13248,0,9,1,156,1088,3,11978,13,EASTERN,Marsabit,Table 9b: Urban Households by main mode of Human Waste Disposal,"Environment, Water and Sanitation","Environment, Water and Sanitation",37.48344825,2.238105939,"(2.238105939, 37.48344825)",95
MOYALE,Rural,0.1%,0.1%,0%,0.3%,30.2%,0%,69%,0.3%,9752,6,7,4,31,2944,4,6731,25,EASTERN,Marsabit,Table 9b: Urban Households by main mode of Human Waste Disposal,"Environment, Water and Sanitation","Environment, Water and Sanitation",38.80269655,3.117620629,"(3.117620629, 38.80269655)",96
ISIOLO,Rural,0.3%,3.1%,0%,2.4%,16.4%,0.1%,77.6%,0.1%,9745,30,306,3,233,1601,8,7558,6,EASTERN,Isiolo,Table 9b: Urban Households by main mode of Human Waste Disposal,"Environment, Water and Sanitation","Environment, Water and Sanitation",38.46170147,1.255057085,"(1.255057085, 38.46170147)",97
GARBATULLA,Rural,0.2%,0%,0%,2%,28.4%,0.1%,68.4%,0.9%,7076,11,1,2,138,2011,6,4843,64,EASTERN,Isiolo,Table 9b: Urban Households by main mode of Human Waste Disposal,"Environment, Water and Sanitation","Environment, Water and Sanitation",38.65180184,0.627639147,"(0.627639147, 38.65180184)",98
MERU CENTRAL,Rural,0.2%,0.7%,0.1%,12.4%,86%,0%,0.6%,0.1%,37209,80,244,33,4601,31991,7,229,24,EASTERN,Meru,Table 9b: Urban Households by main mode of Human Waste Disposal,"Environment, Water and Sanitation","Environment, Water and Sanitation",37.58330732,0.001443681,"(0.001443681, 37.58330732)",99
IMENTI NORTH,Rural,0.2%,1.4%,0.1%,9.5%,88%,0.1%,0.6%,0.1%,51419,82,745,43,4877,45252,26,334,60,EASTERN,Meru,Table 9b: Urban Households by main mode of Human Waste Disposal,"Environment, Water and Sanitation","Environment, Water and Sanitation",37.43552549,0.083380846,"(0.083380846, 37.43552549)",100
IMENTI SOUTH,Rural,0.3%,1.2%,0.1%,12%,85.9%,0%,0.4%,0.1%,42793,141,493,47,5143,36742,13,175,39,EASTERN,Meru,Table 9b: Urban Households by main mode of Human Waste Disposal,"Environment, Water and Sanitation","Environment, Water and Sanitation",37.60133849,-0.122681965,"(-0.122681965, 37.60133849)",101
MERU SOUTH,Rural,0.1%,0.3%,0.1%,6.9%,89.7%,0.1%,2.8%,0.1%,21157,19,53,26,1468,18970,18,584,19,EASTERN,Meru,Table 9b: Urban Households by main mode of Human Waste Disposal,"Environment, Water and Sanitation","Environment, Water and Sanitation",37.67297626,-0.330686401,"(-0.330686401, 37.67297626)",102
MAARA,Rural,0.1%,0.3%,0.3%,7%,91.4%,0%,0.6%,0.2%,19509,25,53,54,1375,17840,8,119,35,EASTERN,Meru,Table 9b: Urban Households by main mode of Human Waste Disposal,"Environment, Water and Sanitation","Environment, Water and Sanitation",37.62522793,-0.228019729,"(-0.228019729, 37.62522793)",103
IGEMBE,Rural,0.1%,0.4%,0.1%,5.5%,88.5%,0.1%,5.1%,0.2%,91130,122,386,100,5018,80608,56,4627,213,EASTERN,Meru,Table 9b: Urban Households by main mode of Human Waste Disposal,"Environment, Water and Sanitation","Environment, Water and Sanitation",38.05720532,0.303772382,"(0.303772382, 38.05720532)",104
TIGANIA,Rural,0.1%,0.2%,0.1%,3.5%,92.5%,0.1%,3.3%,0.2%,61666,71,151,50,2130,57038,52,2062,112,EASTERN,Meru,Table 9b: Urban Households by main mode of Human Waste Disposal,"Environment, Water and Sanitation","Environment, Water and Sanitation",37.77333779,0.256927453,"(0.256927453, 37.77333779)",105
THARAKA,Rural,0.1%,0.3%,0%,7.6%,82.1%,0%,9.8%,0.1%,25227,17,66,8,1907,20714,8,2482,25,EASTERN,Tharaka Nithi,Table 9b: Urban Households by main mode of Human Waste Disposal,"Environment, Water and Sanitation","Environment, Water and Sanitation",38.01828449,-0.136787024,"(-0.136787024, 38.01828449)",106
EMBU,Rural,0.5%,1%,0.1%,12.3%,85.9%,0.1%,0.2%,0%,56173,263,545,50,6899,48227,31,134,24,EASTERN,Embu,Table 9b: Urban Households by main mode of Human Waste Disposal,"Environment, Water and Sanitation","Environment, Water and Sanitation",37.50475286,-0.409100139,"(-0.409100139, 37.50475286)",107
MBEERE,Rural,0.6%,0.7%,0.1%,5.8%,88.6%,0.1%,3.9%,0.1%,50579,314,373,55,2933,44823,30,1995,56,EASTERN,Embu,Table 9b: Urban Households by main mode of Human Waste Disposal,"Environment, Water and Sanitation","Environment, Water and Sanitation",37.66541038,-0.666137176,"(-0.666137176, 37.66541038)",108
KITUI,Rural,0.1%,0.1%,0.1%,5.6%,67.9%,0.1%,26.1%,0.1%,67254,44,74,63,3767,45639,34,17583,50,EASTERN,Kitui,Table 9b: Urban Households by main mode of Human Waste Disposal,"Environment, Water and Sanitation","Environment, Water and Sanitation",38.30094003,-1.392710301,"(-1.392710301, 38.30094003)",109
MUTOMO,Rural,0.1%,0.1%,0.1%,1.9%,52%,0%,45.7%,0.1%,32427,22,22,17,623,16876,12,14834,21,EASTERN,Kitui,Table 9b: Urban Households by main mode of Human Waste Disposal,"Environment, Water and Sanitation","Environment, Water and Sanitation",38.53912323,-2.179047638,"(-2.179047638, 38.53912323)",110
MWINGI,Rural,0%,0.1%,0.1%,4.2%,62.5%,0%,32.8%,0.2%,45445,20,48,39,1929,28404,10,14894,101,EASTERN,Kitui,Table 9b: Urban Households by main mode of Human Waste Disposal,"Environment, Water and Sanitation","Environment, Water and Sanitation",38.36852014,-0.907180566,"(-0.907180566, 38.36852014)",111
KYUSO,Rural,0.1%,0.1%,0%,3.3%,42%,0%,54.4%,0.1%,26498,34,19,8,876,11122,7,14411,21,EASTERN,Kitui,Table 9b: Urban Households by main mode of Human Waste Disposal,"Environment, Water and Sanitation","Environment, Water and Sanitation",38.27042885,-0.440861626,"(-0.440861626, 38.27042885)",112
MACHAKOS,Rural,0.1%,0.5%,0.1%,7.7%,90%,0.1%,1.2%,0.5%,33559,22,158,18,2589,30187,31,393,161,EASTERN,Machakos,Table 9b: Urban Households by main mode of Human Waste Disposal,"Environment, Water and Sanitation","Environment, Water and Sanitation",37.16409824,-1.50054564,"(-1.50054564, 37.16409824)",113
MWALA,Rural,0.1%,0.1%,0.2%,5.7%,90.2%,0%,3.5%,0.1%,33760,24,48,64,1936,30456,10,1182,40,EASTERN,Machakos,Table 9b: Urban Households by main mode of Human Waste Disposal,"Environment, Water and Sanitation","Environment, Water and Sanitation",37.52391049,-1.399783931,"(-1.399783931, 37.52391049)",114
YATTA,Rural,0.2%,0.6%,0.6%,5.7%,86.1%,0%,6.8%,0.1%,46905,71,266,274,2676,40388,12,3183,35,EASTERN,Machakos,Table 9b: Urban Households by main mode of Human Waste Disposal,"Environment, Water and Sanitation","Environment, Water and Sanitation",37.60220541,-1.060809489,"(-1.060809489, 37.60220541)",115
KANGUNDO,Rural,,,,,,,,,0,0,0,0,0,0,0,0,0,EASTERN,Machakos,Table 9b: Urban Households by main mode of Human Waste Disposal,"Environment, Water and Sanitation","Environment, Water and Sanitation",37.27203719,-1.237582196,"(-1.237582196, 37.27203719)",116
MAKUENI,Rural,0%,0.2%,0%,4.3%,94.4%,0%,1%,0%,36541,10,56,8,1580,34481,13,383,10,EASTERN,Makueni,Table 9b: Urban Households by main mode of Human Waste Disposal,"Environment, Water and Sanitation","Environment, Water and Sanitation",37.67253055,-1.881125246,"(-1.881125246, 37.67253055)",117
MBOONI,Rural,0%,0.1%,0%,2.9%,95.1%,0%,1.8%,0%,36765,7,36,12,1051,34976,9,660,14,EASTERN,Makueni,Table 9b: Urban Households by main mode of Human Waste Disposal,"Environment, Water and Sanitation","Environment, Water and Sanitation",37.60666503,-1.649117358,"(-1.649117358, 37.60666503)",118
KIBWEZI,Rural,0.5%,0.5%,0.2%,5.7%,88.8%,0%,4.3%,0%,45843,217,210,91,2592,40707,16,1992,18,EASTERN,Makueni,Table 9b: Urban Households by main mode of Human Waste Disposal,"Environment, Water and Sanitation","Environment, Water and Sanitation",38.02538524,-2.468788914,"(-2.468788914, 38.02538524)",119
NZAUI,Rural,0.1%,0.2%,0.1%,4.6%,93.7%,0%,1.3%,0%,40654,31,88,24,1884,38076,9,523,19,EASTERN,Makueni,Table 9b: Urban Households by main mode of Human Waste Disposal,"Environment, Water and Sanitation","Environment, Water and Sanitation",37.41612392,-1.928374635,"(-1.928374635, 37.41612392)",120
NAIROBI WEST,Urban,19.5%,6%,0.5%,3.7%,68.6%,0.6%,0.7%,0.4%,212295,41426,12686,1004,7912,145534,1353,1436,944,NAIROBI,Nairobi,Table 9b: Urban Households by main mode of Human Waste Disposal,"Environment, Water and Sanitation","Environment, Water and Sanitation",36.79920201,-1.341174727,"(-1.341174727, 36.79920201)",121
NAIROBI EAST,Urban,58%,6.5%,1%,2.1%,31.4%,0.5%,0.3%,0.3%,369866,214428,24152,3828,7586,115954,1689,1169,1060,NAIROBI,Nairobi,Table 9b: Urban Households by main mode of Human Waste Disposal,"Environment, Water and Sanitation","Environment, Water and Sanitation",36.967484,-1.274861358,"(-1.274861358, 36.967484)",122
NAIROBI NORTH,Urban,55.7%,14.5%,1.6%,3%,23.9%,0.6%,0.3%,0.3%,327428,182521,47637,5219,9731,78179,2053,971,1117,NAIROBI,Nairobi,Table 9b: Urban Households by main mode of Human Waste Disposal,"Environment, Water and Sanitation","Environment, Water and Sanitation",36.8911257,-1.225618057,"(-1.225618057, 36.8911257)",123
WESTLANDS,Urban,41.7%,14.5%,0.6%,1.7%,40.8%,0.1%,0.5%,0.1%,75427,31455,10935,438,1248,30796,110,386,59,NAIROBI,Nairobi,Table 9b: Urban Households by main mode of Human Waste Disposal,"Environment, Water and Sanitation","Environment, Water and Sanitation",36.7882561,-1.246976295,"(-1.246976295, 36.7882561)",124
NAIROBI WEST,Rural,,,,,,,,,0,0,0,0,0,0,0,0,0,NAIROBI,Nairobi,Table 9b: Urban Households by main mode of Human Waste Disposal,"Environment, Water and Sanitation","Environment, Water and Sanitation",36.79920201,-1.341174727,"(-1.341174727, 36.79920201)",125
NAIROBI EAST,Rural,,,,,,,,,0,0,0,0,0,0,0,0,0,NAIROBI,Nairobi,Table 9b: Urban Households by main mode of Human Waste Disposal,"Environment, Water and Sanitation","Environment, Water and Sanitation",36.967484,-1.274861358,"(-1.274861358, 36.967484)",126
NAIROBI NORTH,Rural,,,,,,,,,0,0,0,0,0,0,0,0,0,NAIROBI,Nairobi,Table 9b: Urban Households by main mode of Human Waste Disposal,"Environment, Water and Sanitation","Environment, Water and Sanitation",36.8911257,-1.225618057,"(-1.225618057, 36.8911257)",127
WESTLANDS,Rural,,,,,,,,,0,0,0,0,0,0,0,0,0,NAIROBI,Nairobi,Table 9b: Urban Households by main mode of Human Waste Disposal,"Environment, Water and Sanitation","Environment, Water and Sanitation",36.7882561,-1.246976295,"(-1.246976295, 36.7882561)",128
GARISSA,Urban,4.6%,3.2%,0.3%,8.4%,72.9%,0.4%,9.7%,0.4%,20929,964,664,71,1758,15258,94,2039,81,NORTH EASTERN,Garissa,Table 9b: Urban Households by main mode of Human Waste Disposal,"Environment, Water and Sanitation","Environment, Water and Sanitation",39.56855753,-0.051825797,"(-0.051825797, 39.56855753)",129
LAGDERA,Urban,0.1%,0.8%,0.2%,2.5%,77.3%,0.2%,18.1%,0.8%,1849,2,15,4,46,1429,4,335,14,NORTH EASTERN,Garissa,Table 9b: Urban Households by main mode of Human Waste Disposal,"Environment, Water and Sanitation","Environment, Water and Sanitation",39.89717479,0.288065622,"(0.288065622, 39.89717479)",130
FAFI,Urban,0%,0.3%,0%,0.9%,60.4%,0%,38.3%,0%,326,0,1,0,3,197,0,125,0,NORTH EASTERN,Garissa,Table 9b: Urban Households by main mode of Human Waste Disposal,"Environment, Water and Sanitation","Environment, Water and Sanitation",40.43908059,-0.687063677,"(-0.687063677, 40.43908059)",131
IJARA,Urban,0.3%,0.1%,0.1%,2.6%,72.6%,0%,23.9%,0.4%,2479,7,3,2,64,1799,1,592,11,NORTH EASTERN,Garissa,Table 9b: Urban Households by main mode of Human Waste Disposal,"Environment, Water and Sanitation","Environment, Water and Sanitation",40.73455516,-1.427885086,"(-1.427885086, 40.73455516)",132
WAJIR SOUTH,Urban,0.5%,0.1%,0%,2.6%,88.9%,0%,6.2%,1.8%,1474,7,1,0,38,1310,0,91,27,NORTH EASTERN,Wajir,Table 9b: Urban Households by main mode of Human Waste Disposal,"Environment, Water and Sanitation","Environment, Water and Sanitation",40.34314459,0.974263337,"(0.974263337, 40.34314459)",133
WAJIR NORTH,Urban,,,,,,,,,0,0,0,0,0,0,0,0,0,NORTH EASTERN,Wajir,Table 9b: Urban Households by main mode of Human Waste Disposal,"Environment, Water and Sanitation","Environment, Water and Sanitation",39.5873795,2.931162031,"(2.931162031, 39.5873795)",134
WAJIR EAST,Urban,0.9%,2.4%,0.2%,0.3%,2.3%,51.5%,42%,0.4%,12689,108,308,22,44,286,6534,5332,55,NORTH EASTERN,Wajir,Table 9b: Urban Households by main mode of Human Waste Disposal,"Environment, Water and Sanitation","Environment, Water and Sanitation",40.36685178,2.195672158,"(2.195672158, 40.36685178)",135
WAJIR WEST,Urban,0.8%,0%,0.2%,0%,88.2%,0%,10.8%,0.2%,659,5,0,1,0,581,0,71,1,NORTH EASTERN,Wajir,Table 9b: Urban Households by main mode of Human Waste Disposal,"Environment, Water and Sanitation","Environment, Water and Sanitation",39.5240015,1.920164855,"(1.920164855, 39.5240015)",136
MANDERA CENTRAL,Urban,0.1%,0.1%,0%,1.5%,73.7%,0.1%,24.1%,0.3%,8209,7,6,3,127,6052,9,1978,27,NORTH EASTERN,Mandera,Table 9b: Urban Households by main mode of Human Waste Disposal,"Environment, Water and Sanitation","Environment, Water and Sanitation",40.72748791,3.226535113,"(3.226535113, 40.72748791)",137
MANDERA EAST,Urban,0.6%,0.4%,1.3%,2.5%,80.5%,0.2%,12.8%,1.7%,12580,71,56,168,316,10124,24,1611,210,NORTH EASTERN,Mandera,Table 9b: Urban Households by main mode of Human Waste Disposal,"Environment, Water and Sanitation","Environment, Water and Sanitation",41.29294811,3.521529392,"(3.521529392, 41.29294811)",138
MANDERA WEST,Urban,0.1%,0%,0%,0.9%,79.3%,0%,19.6%,0%,2526,3,1,1,23,2002,1,495,0,NORTH EASTERN,Mandera,Table 9b: Urban Households by main mode of Human Waste Disposal,"Environment, Water and Sanitation","Environment, Water and Sanitation",40.2334622,3.593363344,"(3.593363344, 40.2334622)",139
GARISSA,Rural,0%,0%,0.1%,1.2%,8.7%,0.1%,89.4%,0.5%,11189,0,5,13,134,973,8,10002,54,NORTH EASTERN,Garissa,Table 9b: Urban Households by main mode of Human Waste Disposal,"Environment, Water and Sanitation","Environment, Water and Sanitation",39.56855753,-0.051825797,"(-0.051825797, 39.56855753)",140
LAGDERA,Rural,0.2%,0.3%,0.1%,1%,46.7%,0.2%,50.5%,0.9%,35534,82,113,39,366,16599,58,17943,334,NORTH EASTERN,Garissa,Table 9b: Urban Households by main mode of Human Waste Disposal,"Environment, Water and Sanitation","Environment, Water and Sanitation",39.89717479,0.288065622,"(0.288065622, 39.89717479)",141
FAFI,Rural,0.4%,0.3%,0.1%,1.2%,57.4%,0.9%,39.5%,0.3%,15583,65,49,14,190,8938,137,6148,42,NORTH EASTERN,Garissa,Table 9b: Urban Households by main mode of Human Waste Disposal,"Environment, Water and Sanitation","Environment, Water and Sanitation",40.43908059,-0.687063677,"(-0.687063677, 40.43908059)",142
IJARA,Rural,0%,0%,0.1%,0.1%,8.5%,0.1%,91.1%,0.2%,10701,1,1,7,6,909,6,9750,21,NORTH EASTERN,Garissa,Table 9b: Urban Households by main mode of Human Waste Disposal,"Environment, Water and Sanitation","Environment, Water and Sanitation",40.73455516,-1.427885086,"(-1.427885086, 40.73455516)",143
WAJIR SOUTH,Rural,0%,0%,0.1%,0.9%,14.8%,0.2%,83.5%,0.4%,17030,3,3,14,161,2515,35,14227,72,NORTH EASTERN,Wajir,Table 9b: Urban Households by main mode of Human Waste Disposal,"Environment, Water and Sanitation","Environment, Water and Sanitation",40.34314459,0.974263337,"(0.974263337, 40.34314459)",144
WAJIR NORTH,Rural,0.1%,0%,0%,0.7%,24.8%,0.2%,74%,0.1%,17592,21,6,6,116,4355,42,13024,22,NORTH EASTERN,Wajir,Table 9b: Urban Households by main mode of Human Waste Disposal,"Environment, Water and Sanitation","Environment, Water and Sanitation",39.5873795,2.931162031,"(2.931162031, 39.5873795)",145
WAJIR EAST,Rural,0%,0%,0.1%,0.1%,8.7%,0.1%,90.9%,0.1%,18414,4,4,10,19,1599,27,16740,11,NORTH EASTERN,Wajir,Table 9b: Urban Households by main mode of Human Waste Disposal,"Environment, Water and Sanitation","Environment, Water and Sanitation",40.36685178,2.195672158,"(2.195672158, 40.36685178)",146
WAJIR WEST,Rural,0%,0%,0%,1%,10.5%,0.1%,88%,0.2%,20716,3,7,6,204,2185,22,18238,51,NORTH EASTERN,Wajir,Table 9b: Urban Households by main mode of Human Waste Disposal,"Environment, Water and Sanitation","Environment, Water and Sanitation",39.5240015,1.920164855,"(1.920164855, 39.5240015)",147
MANDERA CENTRAL,Rural,0%,0%,0%,0.2%,18.7%,0.1%,80.7%,0.2%,42017,6,6,16,96,7868,44,33895,86,NORTH EASTERN,Mandera,Table 9b: Urban Households by main mode of Human Waste Disposal,"Environment, Water and Sanitation","Environment, Water and Sanitation",40.72748791,3.226535113,"(3.226535113, 40.72748791)",148
MANDERA EAST,Rural,0%,0%,0.1%,0.7%,24.2%,0.1%,74.6%,0.3%,25892,2,6,15,189,6268,23,19317,72,NORTH EASTERN,Mandera,Table 9b: Urban Households by main mode of Human Waste Disposal,"Environment, Water and Sanitation","Environment, Water and Sanitation",41.29294811,3.521529392,"(3.521529392, 41.29294811)",149
MANDERA WEST,Rural,0.1%,0%,0.1%,0.4%,25.9%,0.2%,73.4%,0%,34273,33,12,23,125,8863,67,25141,9,NORTH EASTERN,Mandera,Table 9b: Urban Households by main mode of Human Waste Disposal,"Environment, Water and Sanitation","Environment, Water and Sanitation",40.2334622,3.593363344,"(3.593363344, 40.2334622)",150
SIAYA,Urban,1.8%,2.1%,0.2%,6%,87.7%,0.1%,2%,0.1%,10234,187,215,18,619,8972,12,204,7,NYANZA,Siaya,Table 9b: Urban Households by main mode of Human Waste Disposal,"Environment, Water and Sanitation","Environment, Water and Sanitation",34.3043068,0.11399015,"(0.11399015, 34.3043068)",151
BONDO,Urban,0.3%,0.4%,0.4%,6.8%,76.5%,0%,15.6%,0%,11273,33,50,41,763,8620,3,1759,4,NYANZA,Siaya,Table 9b: Urban Households by main mode of Human Waste Disposal,"Environment, Water and Sanitation","Environment, Water and Sanitation",34.19064437,-0.09212788,"(-0.09212788, 34.19064437)",152
RARIEDA,Urban,0.2%,0%,0.1%,3.2%,91.7%,0.1%,4.4%,0.2%,855,2,0,1,27,784,1,38,2,NYANZA,Siaya,Table 9b: Urban Households by main mode of Human Waste Disposal,"Environment, Water and Sanitation","Environment, Water and Sanitation",34.33792037,-0.218940047,"(-0.218940047, 34.33792037)",153
KISUMU EAST,Urban,10%,4.9%,0.1%,3.9%,75.1%,0.1%,5.6%,0.2%,97461,9730,4735,145,3836,73215,126,5485,189,NYANZA,Kisumu,Table 9b: Urban Households by main mode of Human Waste Disposal,"Environment, Water and Sanitation","Environment, Water and Sanitation",34.80473358,-0.103412297,"(-0.103412297, 34.80473358)",154
KISUMU WEST,Urban,4.8%,7.1%,0%,6.1%,81.6%,0.1%,0.3%,0%,1384,66,98,0,85,1130,1,4,0,NYANZA,Kisumu,Table 9b: Urban Households by main mode of Human Waste Disposal,"Environment, Water and Sanitation","Environment, Water and Sanitation",34.53285818,-0.087587476,"(-0.087587476, 34.53285818)",155
NYANDO,Urban,3.9%,1.4%,0.4%,2.4%,83.1%,0.1%,8.4%,0.3%,25777,1001,356,101,617,21428,14,2174,86,NYANZA,Kisumu,Table 9b: Urban Households by main mode of Human Waste Disposal,"Environment, Water and Sanitation","Environment, Water and Sanitation",35.02991504,-0.198538171,"(-0.198538171, 35.02991504)",156
HOMABAY,Urban,11.5%,0.7%,0.1%,6.4%,60.1%,0.1%,21.1%,0.1%,13891,1595,92,7,889,8348,7,2935,18,NYANZA,Homa Bay,Table 9b: Urban Households by main mode of Human Waste Disposal,"Environment, Water and Sanitation","Environment, Water and Sanitation",34.44445584,-0.667961724,"(-0.667961724, 34.44445584)",157
SUBA,Urban,0.8%,0.3%,0%,2.1%,90.6%,0.1%,6%,0%,4915,41,14,2,105,4453,3,296,1,NYANZA,Homa Bay,Table 9b: Urban Households by main mode of Human Waste Disposal,"Environment, Water and Sanitation","Environment, Water and Sanitation",34.20665004,-0.582416527,"(-0.582416527, 34.20665004)",158
RACHUONYO,Urban,0.2%,0.6%,0.1%,2.9%,86%,0.1%,9.9%,0.2%,13465,23,87,12,391,11584,8,1336,24,NYANZA,Homa Bay,Table 9b: Urban Households by main mode of Human Waste Disposal,"Environment, Water and Sanitation","Environment, Water and Sanitation",34.70386182,-0.43493606,"(-0.43493606, 34.70386182)",159
MIGORI,Urban,0.4%,1.3%,0.1%,4.5%,84.5%,0.1%,8.8%,0.2%,18565,82,248,21,831,15685,22,1639,37,NYANZA,Migori,Table 9b: Urban Households by main mode of Human Waste Disposal,"Environment, Water and Sanitation","Environment, Water and Sanitation",34.30280979,-0.994047994,"(-0.994047994, 34.30280979)",160
RONGO,Urban,1.7%,0.3%,0.1%,2.8%,73.7%,0.1%,21.1%,0.2%,41015,687,107,28,1142,30221,61,8667,102,NYANZA,Migori,Table 9b: Urban Households by main mode of Human Waste Disposal,"Environment, Water and Sanitation","Environment, Water and Sanitation",34.51455638,-0.877791282,"(-0.877791282, 34.51455638)",161
KURIA WEST,Urban,0.2%,1.1%,0.1%,10.4%,82.5%,0.6%,5%,0.2%,6786,13,77,4,704,5599,38,338,13,NYANZA,Migori,Table 9a: Rural Households by main mode of Human Waste Disposal,"Environment, Water and Sanitation","Environment, Water and Sanitation",34.51983447,-1.18554383,"(-1.18554383, 34.51983447)",162
KISII CENTRAL,Urban,6.9%,3.3%,0.6%,6.1%,82.6%,0.2%,0.2%,0%,20687,1424,683,116,1264,17097,43,51,9,NYANZA,Kisii,Table 9a: Rural Households by main mode of Human Waste Disposal,"Environment, Water and Sanitation","Environment, Water and Sanitation",34.79181187,-0.589287405,"(-0.589287405, 34.79181187)",163
KISII SOUTH,Urban,0%,1.2%,0%,5.8%,91.8%,0%,0.9%,0.2%,12694,4,149,5,741,11650,5,116,24,NYANZA,Kisii,Table 9a: Rural Households by main mode of Human Waste Disposal,"Environment, Water and Sanitation","Environment, Water and Sanitation",34.6895693,-0.664610487,"(-0.664610487, 34.6895693)",164
MASABA,Urban,0.1%,0.4%,0%,4.4%,94.4%,0.1%,0.6%,0.1%,19665,17,69,5,860,18568,10,110,26,NYANZA,Kisii,Table 9a: Rural Households by main mode of Human Waste Disposal,"Environment, Water and Sanitation","Environment, Water and Sanitation",34.88253143,-0.793929262,"(-0.793929262, 34.88253143)",165
GUCHA,Urban,0%,0.6%,0%,5.5%,93.3%,0%,0.4%,0.1%,6197,3,37,1,340,5783,3,26,4,NYANZA,Kisii,Table 9a: Rural Households by main mode of Human Waste Disposal,"Environment, Water and Sanitation","Environment, Water and Sanitation",34.77186075,-0.846550168,"(-0.846550168, 34.77186075)",166
GUCHA SOUTH,Urban,2.3%,0.1%,0.1%,10%,87.2%,0%,0.2%,0%,2814,64,4,3,282,2454,0,6,1,NYANZA,Kisii,Table 9a: Rural Households by main mode of Human Waste Disposal,"Environment, Water and Sanitation","Environment, Water and Sanitation",34.65567846,-0.847942391,"(-0.847942391, 34.65567846)",167
NYAMIRA,Urban,0.2%,0.6%,0.1%,5.6%,92.6%,0.3%,0.4%,0%,13876,32,89,16,782,12854,38,60,5,NYANZA,Nyamira,Table 9a: Rural Households by main mode of Human Waste Disposal,"Environment, Water and Sanitation","Environment, Water and Sanitation",34.96346861,-0.549513229,"(-0.549513229, 34.96346861)",168
MANGA,Urban,,,,,,,,,0,0,0,0,0,0,0,0,0,NYANZA,Nyamira,Table 9a: Rural Households by main mode of Human Waste Disposal,"Environment, Water and Sanitation","Environment, Water and Sanitation",34.90211779,-0.688310175,"(-0.688310175, 34.90211779)",169
BORABU,Urban,0.3%,1.1%,0%,7.2%,89%,0.1%,2.2%,0.1%,1536,4,17,0,110,1367,2,34,2,NYANZA,Nyamira,Table 9a: Rural Households by main mode of Human Waste Disposal,"Environment, Water and Sanitation","Environment, Water and Sanitation",35.02803793,-0.735368659,"(-0.735368659, 35.02803793)",170
SIAYA,Rural,0.1%,0.2%,0.1%,3.2%,83.9%,0.1%,12.4%,0.1%,120471,107,188,82,3821,101110,95,14912,156,NYANZA,Siaya,Table 9a: Rural Households by main mode of Human Waste Disposal,"Environment, Water and Sanitation","Environment, Water and Sanitation",34.3043068,0.11399015,"(0.11399015, 34.3043068)",171
BONDO,Rural,0.1%,0.1%,0.1%,5.3%,48.9%,0%,45.4%,0.1%,26023,22,21,32,1384,12721,13,11809,21,NYANZA,Siaya,Table 9a: Rural Households by main mode of Human Waste Disposal,"Environment, Water and Sanitation","Environment, Water and Sanitation",34.19064437,-0.09212788,"(-0.09212788, 34.19064437)",172
RARIEDA,Rural,0.1%,0.1%,0.1%,3%,59.2%,0.1%,36.7%,0.6%,30178,45,38,25,919,17855,30,11071,195,NYANZA,Siaya,Table 9a: Rural Households by main mode of Human Waste Disposal,"Environment, Water and Sanitation","Environment, Water and Sanitation",34.33792037,-0.218940047,"(-0.218940047, 34.33792037)",173
KISUMU EAST,Rural,0.2%,1%,0%,2.2%,90.3%,0.3%,5.5%,0.3%,18041,43,183,7,400,16287,59,999,63,NYANZA,Kisumu,Table 9a: Rural Households by main mode of Human Waste Disposal,"Environment, Water and Sanitation","Environment, Water and Sanitation",34.80473358,-0.103412297,"(-0.103412297, 34.80473358)",174
KISUMU WEST,Rural,0%,0.2%,0%,3.5%,74.4%,0.1%,21.1%,0.6%,31608,15,67,12,1119,23511,28,6659,197,NYANZA,Kisumu,Table 9a: Rural Households by main mode of Human Waste Disposal,"Environment, Water and Sanitation","Environment, Water and Sanitation",34.53285818,-0.087587476,"(-0.087587476, 34.53285818)",175
NYANDO,Rural,0.1%,0.1%,0.1%,2.2%,73.8%,0.1%,23.1%,0.4%,52448,78,74,29,1167,38711,47,12119,223,NYANZA,Kisumu,Table 9a: Rural Households by main mode of Human Waste Disposal,"Environment, Water and Sanitation","Environment, Water and Sanitation",35.02991504,-0.198538171,"(-0.198538171, 35.02991504)",176
HOMABAY,Rural,0.1%,0.1%,0.1%,2.3%,46.5%,0.1%,50.6%,0.3%,65649,54,64,35,1486,30517,56,33210,227,NYANZA,Homa Bay,Table 9a: Rural Households by main mode of Human Waste Disposal,"Environment, Water and Sanitation","Environment, Water and Sanitation",34.44445584,-0.667961724,"(-0.667961724, 34.44445584)",177
SUBA,Rural,0.2%,0.1%,0.1%,1.4%,35.6%,0.1%,62.6%,0%,40405,64,30,28,553,14373,35,25308,14,NYANZA,Homa Bay,Table 9a: Rural Households by main mode of Human Waste Disposal,"Environment, Water and Sanitation","Environment, Water and Sanitation",34.20665004,-0.582416527,"(-0.582416527, 34.20665004)",178
RACHUONYO,Rural,0.1%,0.1%,0%,2.6%,72.5%,0.1%,24.2%,0.3%,67930,92,67,27,1785,49276,62,16424,197,NYANZA,Homa Bay,Table 9a: Rural Households by main mode of Human Waste Disposal,"Environment, Water and Sanitation","Environment, Water and Sanitation",34.70386182,-0.43493606,"(-0.43493606, 34.70386182)",179
MIGORI,Rural,0.1%,0.1%,0.1%,1.7%,38.2%,0.1%,59.7%,0.1%,51951,51,43,37,904,19820,43,31017,36,NYANZA,Migori,Table 9a: Rural Households by main mode of Human Waste Disposal,"Environment, Water and Sanitation","Environment, Water and Sanitation",34.30280979,-0.994047994,"(-0.994047994, 34.30280979)",180
RONGO,Rural,0%,0.3%,0%,2.8%,65.9%,0.1%,30.6%,0.1%,26880,10,90,13,761,17720,21,8232,33,NYANZA,Migori,Table 9a: Rural Households by main mode of Human Waste Disposal,"Environment, Water and Sanitation","Environment, Water and Sanitation",34.51455638,-0.877791282,"(-0.877791282, 34.51455638)",181
KURIA WEST,Rural,0.1%,0.1%,0.1%,2.9%,66.5%,0.1%,30.2%,0.1%,21501,13,27,19,620,14293,21,6493,15,NYANZA,Migori,Table 9a: Rural Households by main mode of Human Waste Disposal,"Environment, Water and Sanitation","Environment, Water and Sanitation",34.51983447,-1.18554383,"(-1.18554383, 34.51983447)",182
KURIA EAST,Rural,0%,0%,0%,2.4%,75.1%,0.1%,22.3%,0.1%,13513,5,3,3,324,10142,9,3018,9,NYANZA,Migori,Table 9a: Rural Households by main mode of Human Waste Disposal,"Environment, Water and Sanitation","Environment, Water and Sanitation",34.65699509,-1.279753411,"(-1.279753411, 34.65699509)",183
KISII CENTRAL,Rural,0.1%,0.2%,0.1%,4.3%,94.7%,0%,0.6%,0.1%,60739,43,109,34,2600,57493,14,391,55,NYANZA,Kisii,Table 9a: Rural Households by main mode of Human Waste Disposal,"Environment, Water and Sanitation","Environment, Water and Sanitation",34.79181187,-0.589287405,"(-0.589287405, 34.79181187)",184
KISII SOUTH,Rural,0%,0%,0%,4.3%,93.3%,0.1%,2%,0.3%,11355,3,1,1,486,10591,6,232,35,NYANZA,Kisii,Table 9a: Rural Households by main mode of Human Waste Disposal,"Environment, Water and Sanitation","Environment, Water and Sanitation",34.6895693,-0.664610487,"(-0.664610487, 34.6895693)",185
MASABA,Rural,0.1%,0.1%,0%,3.2%,95.9%,0%,0.5%,0.1%,31121,42,29,11,996,29840,8,164,31,NYANZA,Kisii,Table 9a: Rural Households by main mode of Human Waste Disposal,"Environment, Water and Sanitation","Environment, Water and Sanitation",34.88253143,-0.793929262,"(-0.793929262, 34.88253143)",186
GUCHA,Rural,0%,0.1%,0%,3.5%,95.8%,0%,0.4%,0.1%,75379,29,85,29,2637,72195,22,304,78,NYANZA,Kisii,Table 9a: Rural Households by main mode of Human Waste Disposal,"Environment, Water and Sanitation","Environment, Water and Sanitation",34.77186075,-0.846550168,"(-0.846550168, 34.77186075)",187
GUCHA SOUTH,Rural,0%,0.1%,0%,2%,96.5%,0.1%,1.1%,0.1%,29032,11,25,9,594,28009,17,326,41,NYANZA,Kisii,Table 9a: Rural Households by main mode of Human Waste Disposal,"Environment, Water and Sanitation","Environment, Water and Sanitation",34.65567846,-0.847942391,"(-0.847942391, 34.65567846)",188
NYAMIRA,Rural,0%,0.1%,0%,5%,94.1%,0.1%,0.7%,0%,56063,15,56,13,2787,52774,34,374,10,NYANZA,Nyamira,Table 9a: Rural Households by main mode of Human Waste Disposal,"Environment, Water and Sanitation","Environment, Water and Sanitation",34.96346861,-0.549513229,"(-0.549513229, 34.96346861)",189
BORABU,Rural,0.1%,0.4%,0.1%,5.3%,93.9%,0.1%,0.2%,0%,15615,18,58,14,832,14655,8,25,5,NYANZA,Nyamira,Table 9a: Rural Households by main mode of Human Waste Disposal,"Environment, Water and Sanitation","Environment, Water and Sanitation",35.02803793,-0.735368659,"(-0.735368659, 35.02803793)",190
TURKANA CENTRAL,Urban,0.5%,1.1%,0.2%,3%,52.1%,0.1%,42.4%,0.6%,9903,49,107,22,299,5163,11,4195,57,RIFT VALLEY,Turkana,Table 9a: Rural Households by main mode of Human Waste Disposal,"Environment, Water and Sanitation","Environment, Water and Sanitation",35.44299468,3.05371677,"(3.05371677, 35.44299468)",191
TURKANA NORTH,Urban,0.1%,0.2%,0.2%,2.4%,65.2%,0.1%,31.6%,0.2%,13212,13,27,20,323,8611,7,4178,33,RIFT VALLEY,Turkana,Table 9a: Rural Households by main mode of Human Waste Disposal,"Environment, Water and Sanitation","Environment, Water and Sanitation",35.09717514,4.31378822,"(4.31378822, 35.09717514)",192
TURKANA SOUTH,Urban,,,,,,,,,0,0,0,0,0,0,0,0,0,RIFT VALLEY,Turkana,Table 9a: Rural Households by main mode of Human Waste Disposal,"Environment, Water and Sanitation","Environment, Water and Sanitation",35.99979492,2.078370044,"(2.078370044, 35.99979492)",193
WEST POKOT,Urban,0.3%,1.1%,0.1%,7.7%,76.8%,0.3%,13.6%,0.1%,9054,31,102,7,697,6951,27,1234,5,RIFT VALLEY,West Pokot,Table 9a: Rural Households by main mode of Human Waste Disposal,"Environment, Water and Sanitation","Environment, Water and Sanitation",35.16354392,1.492414256,"(1.492414256, 35.16354392)",194
POKOT NORTH,Urban,,,,,,,,,0,0,0,0,0,0,0,0,0,RIFT VALLEY,West Pokot,Table 9a: Rural Households by main mode of Human Waste Disposal,"Environment, Water and Sanitation","Environment, Water and Sanitation",35.10600361,2.039330692,"(2.039330692, 35.10600361)",195
POKOT CENTRAL,Urban,,,,,,,,,0,0,0,0,0,0,0,0,0,RIFT VALLEY,West Pokot,Table 9a: Rural Households by main mode of Human Waste Disposal,"Environment, Water and Sanitation","Environment, Water and Sanitation",35.49402215,1.491213025,"(1.491213025, 35.49402215)",196
SAMBURU CENTRAL,Urban,0.1%,2.2%,0.6%,7%,86.1%,0%,3.9%,0%,4520,4,101,25,317,3893,0,178,2,RIFT VALLEY,Samburu,Table 9a: Rural Households by main mode of Human Waste Disposal,"Environment, Water and Sanitation","Environment, Water and Sanitation",36.71442163,1.09166901,"(1.09166901, 36.71442163)",197
SAMBURU EAST,Urban,2.6%,2.6%,0%,9.3%,48%,0%,37.1%,0.3%,2859,73,75,0,267,1372,1,1062,9,RIFT VALLEY,Samburu,Table 9a: Rural Households by main mode of Human Waste Disposal,"Environment, Water and Sanitation","Environment, Water and Sanitation",37.47389892,1.081019259,"(1.081019259, 37.47389892)",198
SAMBURU NORTH,Urban,0%,0.1%,0.1%,0.2%,76.7%,0.2%,22.8%,0.1%,1648,0,1,1,3,1264,3,375,1,RIFT VALLEY,Samburu,Table 9a: Rural Households by main mode of Human Waste Disposal,"Environment, Water and Sanitation","Environment, Water and Sanitation",36.83086912,1.789437949,"(1.789437949, 36.83086912)",199
TRANS NZOIA WEST,Urban,7.3%,3%,0.3%,9.6%,78.5%,0.1%,1.1%,0.1%,37131,2697,1109,124,3559,29157,36,420,29,RIFT VALLEY,Trans Nzoia,Table 9a: Rural Households by main mode of Human Waste Disposal,"Environment, Water and Sanitation","Environment, Water and Sanitation",34.89426897,0.942674226,"(0.942674226, 34.89426897)",200
KWANZA,Urban,0%,0.5%,0.1%,3%,95.2%,0.1%,0.9%,0.1%,4116,2,22,4,123,3918,6,38,3,RIFT VALLEY,Trans Nzoia,Table 9a: Rural Households by main mode of Human Waste Disposal,"Environment, Water and Sanitation","Environment, Water and Sanitation",34.85810469,1.134996095,"(1.134996095, 34.85810469)",201
BARINGO,Urban,2.1%,4.5%,0.5%,11.3%,75.5%,0%,6.1%,0%,7629,158,343,41,860,5760,2,464,1,RIFT VALLEY,Baringo,Table 9a: Rural Households by main mode of Human Waste Disposal,"Environment, Water and Sanitation","Environment, Water and Sanitation",35.97415916,0.448155493,"(0.448155493, 35.97415916)",202
BARINGO NORTH,Urban,,,,,,,,,0,0,0,0,0,0,0,0,0,RIFT VALLEY,Baringo,Table 9a: Rural Households by main mode of Human Waste Disposal,"Environment, Water and Sanitation","Environment, Water and Sanitation",35.80555092,0.745856425,"(0.745856425, 35.80555092)",203
EAST POKOT,Urban,,,,,,,,,0,0,0,0,0,0,0,0,0,RIFT VALLEY,Baringo,Table 9a: Rural Households by main mode of Human Waste Disposal,"Environment, Water and Sanitation","Environment, Water and Sanitation",36.01860317,1.049001072,"(1.049001072, 36.01860317)",204
KOIBATEK,Urban,1%,7.1%,0%,11.1%,78.7%,0.3%,1.8%,0.1%,8163,80,581,3,905,6421,21,144,8,RIFT VALLEY,Baringo,Table 9a: Rural Households by main mode of Human Waste Disposal,"Environment, Water and Sanitation","Environment, Water and Sanitation",35.86953085,0.105862677,"(0.105862677, 35.86953085)",205
ELDORET WEST,Urban,24.8%,5.6%,0.4%,7.3%,61.3%,0.1%,0.5%,0%,41805,10358,2333,177,3065,25610,43,200,19,RIFT VALLEY,Uasin Gishu,Table 9a: Rural Households by main mode of Human Waste Disposal,"Environment, Water and Sanitation","Environment, Water and Sanitation",35.19163187,0.711285558,"(0.711285558, 35.19163187)",206
ELDORET EAST,Urban,17.5%,10.7%,0.2%,7.4%,63.7%,0.3%,0.2%,0%,20596,3602,2202,41,1526,13118,53,50,4,RIFT VALLEY,Uasin Gishu,Table 9a: Rural Households by main mode of Human Waste Disposal,"Environment, Water and Sanitation","Environment, Water and Sanitation",35.41893944,0.563160828,"(0.563160828, 35.41893944)",207
WARENG,Urban,6.3%,5.7%,0.2%,6.5%,80.5%,0.2%,0.5%,0.2%,34093,2156,1948,64,2209,27436,63,164,53,RIFT VALLEY,Uasin Gishu,Table 9a: Rural Households by main mode of Human Waste Disposal,"Environment, Water and Sanitation","Environment, Water and Sanitation",35.33850049,0.299690606,"(0.299690606, 35.33850049)",208
MARAKWET,Urban,0.9%,1%,0.3%,1.2%,95.1%,0.6%,0.8%,0%,1916,18,19,6,23,1823,11,16,0,RIFT VALLEY,Elgeyo Marakwet,Table 9a: Rural Households by main mode of Human Waste Disposal,"Environment, Water and Sanitation","Environment, Water and Sanitation",35.50699822,1.08405524,"(1.08405524, 35.50699822)",209
KEIYO,Urban,0.9%,2.4%,0%,4.9%,84.5%,0%,7.2%,0.1%,9689,90,231,0,472,8189,3,699,5,RIFT VALLEY,Elgeyo Marakwet,Table 9a: Rural Households by main mode of Human Waste Disposal,"Environment, Water and Sanitation","Environment, Water and Sanitation",35.57039657,0.489045271,"(0.489045271, 35.57039657)",210
NANDI NORTH,Urban,0.1%,3%,0%,0.9%,95.3%,0.1%,0.6%,0%,980,1,29,0,9,934,1,6,0,RIFT VALLEY,Nandi,Table 9a: Rural Households by main mode of Human Waste Disposal,"Environment, Water and Sanitation","Environment, Water and Sanitation",35.06077368,0.438611778,"(0.438611778, 35.06077368)",211
NANDI CENTRAL,Urban,2.1%,0.9%,0.4%,13.7%,81.5%,0%,1.1%,0.3%,19992,425,185,72,2746,16292,3,216,53,RIFT VALLEY,Nandi,Table 9a: Rural Households by main mode of Human Waste Disposal,"Environment, Water and Sanitation","Environment, Water and Sanitation",35.08490348,0.237462739,"(0.237462739, 35.08490348)",212
NANDI EAST,Urban,2.7%,6%,0%,0.8%,90%,0.3%,0.1%,0%,2773,76,167,1,21,2496,9,3,0,RIFT VALLEY,Nandi,Table 9a: Rural Households by main mode of Human Waste Disposal,"Environment, Water and Sanitation","Environment, Water and Sanitation",35.23779105,0.105368029,"(0.105368029, 35.23779105)",213
TINDERET,Urban,,,,,,,,,0,0,0,0,0,0,0,0,0,RIFT VALLEY,Nandi,Table 9a: Rural Households by main mode of Human Waste Disposal,"Environment, Water and Sanitation","Environment, Water and Sanitation",35.3167413,-0.013491939,"(-0.013491939, 35.3167413)",214
LAIKIPIA NORTH,Urban,0%,0.8%,0.5%,1.9%,77.7%,0%,18.8%,0.3%,373,0,3,2,7,290,0,70,1,RIFT VALLEY,Laikipia,Table 9a: Rural Households by main mode of Human Waste Disposal,"Environment, Water and Sanitation","Environment, Water and Sanitation",36.99627658,0.515458301,"(0.515458301, 36.99627658)",215
LAIKIPIA EAST,Urban,43.3%,3.8%,0.5%,3.6%,48.1%,0.3%,0.3%,0.1%,14160,6132,538,75,509,6807,45,42,12,RIFT VALLEY,Laikipia,Table 9a: Rural Households by main mode of Human Waste Disposal,"Environment, Water and Sanitation","Environment, Water and Sanitation",36.95183375,0.093934415,"(0.093934415, 36.95183375)",216
LAIKIPIA WEST,Urban,27.7%,5.9%,0.5%,4.9%,58.8%,0%,2.1%,0.1%,14732,4079,875,72,715,8664,2,316,9,RIFT VALLEY,Laikipia,Table 9a: Rural Households by main mode of Human Waste Disposal,"Environment, Water and Sanitation","Environment, Water and Sanitation",36.5181069,0.39729996,"(0.39729996, 36.5181069)",217
NAKURU,Urban,25.8%,7.8%,0.4%,8.8%,56.8%,0.3%,0.1%,0.1%,96132,24770,7484,418,8437,54556,285,126,56,RIFT VALLEY,Nakuru,Table 9a: Rural Households by main mode of Human Waste Disposal,"Environment, Water and Sanitation","Environment, Water and Sanitation",36.03461164,-0.134672183,"(-0.134672183, 36.03461164)",218
NAKURU NORTH,Urban,1.1%,6%,0.3%,8.8%,83.3%,0.3%,0.1%,0%,19286,221,1157,59,1704,16072,49,18,6,RIFT VALLEY,Nakuru,Table 9a: Rural Households by main mode of Human Waste Disposal,"Environment, Water and Sanitation","Environment, Water and Sanitation",36.16401596,-0.135028953,"(-0.135028953, 36.16401596)",219
NAIVASHA,Urban,9.9%,4.9%,3.5%,7.3%,73.6%,0.1%,0.6%,0.1%,69025,6837,3392,2384,5046,50836,60,426,44,RIFT VALLEY,Nakuru,Table 9a: Rural Households by main mode of Human Waste Disposal,"Environment, Water and Sanitation","Environment, Water and Sanitation",36.33344468,-0.727134387,"(-0.727134387, 36.33344468)",220
MOLO,Urban,1.3%,2.9%,0.2%,5.5%,89.7%,0.1%,0.2%,0.1%,29170,378,860,44,1616,26179,23,51,19,RIFT VALLEY,Nakuru,Table 9a: Rural Households by main mode of Human Waste Disposal,"Environment, Water and Sanitation","Environment, Water and Sanitation",35.75756717,-0.409755795,"(-0.409755795, 35.75756717)",221
NAROK NORTH,Urban,1%,7%,0.1%,4.9%,86%,0%,1%,0%,12903,126,899,10,633,11095,6,134,0,RIFT VALLEY,Narok,Table 9a: Rural Households by main mode of Human Waste Disposal,"Environment, Water and Sanitation","Environment, Water and Sanitation",35.99464674,-0.959555087,"(-0.959555087, 35.99464674)",222
NAROK SOUTH,Urban,,,,,,,,,0,0,0,0,0,0,0,0,0,RIFT VALLEY,Narok,Table 9a: Rural Households by main mode of Human Waste Disposal,"Environment, Water and Sanitation","Environment, Water and Sanitation",35.5807782,-1.402738483,"(-1.402738483, 35.5807782)",223
TRANS MARA,Urban,1.5%,1.2%,0.3%,5.4%,86.7%,0.1%,4.9%,0%,3599,54,42,10,194,3120,2,176,1,RIFT VALLEY,Narok,Table 9a: Rural Households by main mode of Human Waste Disposal,"Environment, Water and Sanitation","Environment, Water and Sanitation",34.89742997,-1.159714592,"(-1.159714592, 34.89742997)",224
KAJIADO CENTRAL,Urban,1.5%,1.4%,0.1%,7.7%,84.3%,0.2%,4.7%,0.1%,9051,133,128,10,699,7629,16,425,11,RIFT VALLEY,Kajiado,Table 9a: Rural Households by main mode of Human Waste Disposal,"Environment, Water and Sanitation","Environment, Water and Sanitation",36.89341002,-2.133910157,"(-2.133910157, 36.89341002)",225
LOITOKITOK,Urban,0.3%,1.5%,0.1%,10.3%,87.1%,0.2%,0.3%,0.1%,4138,13,64,5,426,3606,10,11,3,RIFT VALLEY,Kajiado,Table 9a: Rural Households by main mode of Human Waste Disposal,"Environment, Water and Sanitation","Environment, Water and Sanitation",37.47875865,-2.635934635,"(-2.635934635, 37.47875865)",226
KERICHO,Urban,7.8%,2.4%,0.2%,3.2%,85.2%,0.2%,1%,0.1%,32135,2493,775,57,1021,27373,50,331,35,RIFT VALLEY,Kericho,Table 9a: Rural Households by main mode of Human Waste Disposal,"Environment, Water and Sanitation","Environment, Water and Sanitation",35.21130866,-0.34219841,"(-0.34219841, 35.21130866)",227
KIPKELION,Urban,0.6%,0.6%,0.1%,2%,94.2%,0.1%,2.3%,0.1%,18635,119,117,15,380,17545,12,431,16,RIFT VALLEY,Kericho,Table 9a: Rural Households by main mode of Human Waste Disposal,"Environment, Water and Sanitation","Environment, Water and Sanitation",35.47881562,-0.155533799,"(-0.155533799, 35.47881562)",228
BURET,Urban,0.8%,1.6%,0%,6.2%,90.5%,0.1%,0.8%,0.1%,5518,46,87,1,340,4993,5,43,3,RIFT VALLEY,Bomet,Table 9a: Rural Households by main mode of Human Waste Disposal,"Environment, Water and Sanitation","Environment, Water and Sanitation",35.3033778,-0.547074877,"(-0.547074877, 35.3033778)",229
SOTIK,Urban,3.6%,2%,0.3%,5.2%,88.2%,0%,0.5%,0%,2311,84,46,8,121,2038,1,12,1,RIFT VALLEY,Bomet,Table 9a: Rural Households by main mode of Human Waste Disposal,"Environment, Water and Sanitation","Environment, Water and Sanitation",35.1490337,-0.759704345,"(-0.759704345, 35.1490337)",230
BOMET,Urban,0.5%,0.8%,0.1%,3.1%,90%,0%,5.4%,0.1%,19238,90,159,25,591,17312,9,1033,19,RIFT VALLEY,Bomet,Table 9a: Rural Households by main mode of Human Waste Disposal,"Environment, Water and Sanitation","Environment, Water and Sanitation",35.31899335,-0.840969003,"(-0.840969003, 35.31899335)",231
KAJIADO NORTH,Urban,2.6%,19.9%,0.4%,5%,71.1%,0.2%,0.7%,0.1%,73931,1944,14690,310,3729,52543,156,501,58,RIFT VALLEY,Kajiado,Table 9a: Rural Households by main mode of Human Waste Disposal,"Environment, Water and Sanitation","Environment, Water and Sanitation",36.44660994,-1.646437311,"(-1.646437311, 36.44660994)",232
TURKANA CENTRAL,Rural,0%,0%,0%,0.3%,4.1%,0%,95.5%,0.1%,31217,5,5,11,86,1270,12,29802,26,RIFT VALLEY,Turkana,Table 9a: Rural Households by main mode of Human Waste Disposal,"Environment, Water and Sanitation","Environment, Water and Sanitation",35.44299468,3.05371677,"(3.05371677, 35.44299468)",233
TURKANA NORTH,Rural,0%,0.2%,0.2%,0.6%,3.4%,0.1%,95.3%,0.2%,40422,17,92,77,231,1373,24,38517,91,RIFT VALLEY,Turkana,Table 9a: Rural Households by main mode of Human Waste Disposal,"Environment, Water and Sanitation","Environment, Water and Sanitation",35.09717514,4.31378822,"(4.31378822, 35.09717514)",234
TURKANA SOUTH,Rural,0.4%,0.1%,0%,0.6%,13.4%,0%,85.5%,0.1%,28437,108,21,3,167,3797,13,24305,23,RIFT VALLEY,Turkana,Table 9a: Rural Households by main mode of Human Waste Disposal,"Environment, Water and Sanitation","Environment, Water and Sanitation",35.99979492,2.078370044,"(2.078370044, 35.99979492)",235
WEST POKOT,Rural,0.3%,0.1%,0.1%,2.1%,34.9%,0%,62.3%,0%,26209,90,18,37,562,9151,6,16334,11,RIFT VALLEY,West Pokot,Table 9a: Rural Households by main mode of Human Waste Disposal,"Environment, Water and Sanitation","Environment, Water and Sanitation",35.16354392,1.492414256,"(1.492414256, 35.16354392)",236
POKOT NORTH,Rural,0%,0%,0%,0.3%,5.4%,0%,94.1%,0.1%,25966,3,12,9,89,1397,4,24436,16,RIFT VALLEY,West Pokot,Table 9a: Rural Households by main mode of Human Waste Disposal,"Environment, Water and Sanitation","Environment, Water and Sanitation",35.10600361,2.039330692,"(2.039330692, 35.10600361)",237
POKOT CENTRAL,Rural,0%,0.1%,0%,1.8%,33.9%,0%,64.2%,0%,32548,8,24,3,574,11028,4,20897,10,RIFT VALLEY,West Pokot,Table 9a: Rural Households by main mode of Human Waste Disposal,"Environment, Water and Sanitation","Environment, Water and Sanitation",35.49402215,1.491213025,"(1.491213025, 35.49402215)",238
SAMBURU CENTRAL,Rural,0.1%,0.6%,0%,1.1%,15.8%,0%,82.3%,0.1%,18300,17,108,3,203,2887,6,15065,11,RIFT VALLEY,Samburu,Table 9a: Rural Households by main mode of Human Waste Disposal,"Environment, Water and Sanitation","Environment, Water and Sanitation",36.71442163,1.09166901,"(1.09166901, 36.71442163)",239
SAMBURU EAST,Rural,0%,0.1%,0%,0.2%,3.8%,0%,95.9%,0%,9976,0,6,1,17,379,2,9567,4,RIFT VALLEY,Samburu,Table 9a: Rural Households by main mode of Human Waste Disposal,"Environment, Water and Sanitation","Environment, Water and Sanitation",37.47389892,1.081019259,"(1.081019259, 37.47389892)",240
SAMBURU NORTH,Rural,0%,0%,0%,0.1%,15.2%,0.1%,84.6%,0.1%,10051,0,4,0,12,1523,7,8499,6,RIFT VALLEY,Samburu,Table 9a: Rural Households by main mode of Human Waste Disposal,"Environment, Water and Sanitation","Environment, Water and Sanitation",36.83086912,1.789437949,"(1.789437949, 36.83086912)",241
TRANS NZOIA WEST,Rural,0.1%,0.2%,0%,6.5%,91.3%,0.1%,1.4%,0.3%,47146,47,98,22,3068,43045,51,675,140,RIFT VALLEY,Trans Nzoia,Table 9a: Rural Households by main mode of Human Waste Disposal,"Environment, Water and Sanitation","Environment, Water and Sanitation",34.89426897,0.942674226,"(0.942674226, 34.89426897)",242
TRANS NZOIA EAST,Rural,0%,0.1%,0%,8.3%,89.8%,0.1%,1.6%,0.1%,39119,10,53,17,3248,35122,27,615,27,RIFT VALLEY,Trans Nzoia,Table 9a: Rural Households by main mode of Human Waste Disposal,"Environment, Water and Sanitation","Environment, Water and Sanitation",35.18029104,1.022635873,"(1.022635873, 35.18029104)",243
KWANZA,Rural,0.1%,0.2%,0.1%,3.4%,89.8%,0.1%,6.1%,0.1%,42605,46,95,33,1438,38280,53,2598,62,RIFT VALLEY,Trans Nzoia,Table 9a: Rural Households by main mode of Human Waste Disposal,"Environment, Water and Sanitation","Environment, Water and Sanitation",34.85810469,1.134996095,"(1.134996095, 34.85810469)",244
BARINGO,Rural,0.1%,0.2%,0%,4.3%,55.4%,0%,39.8%,0%,27309,37,67,7,1182,15128,4,10878,6,RIFT VALLEY,Baringo,Table 9a: Rural Households by main mode of Human Waste Disposal,"Environment, Water and Sanitation","Environment, Water and Sanitation",35.97415916,0.448155493,"(0.448155493, 35.97415916)",245
BARINGO NORTH,Rural,0%,0%,0%,3.1%,53.5%,0%,43.2%,0.1%,19734,3,9,7,610,10563,6,8525,11,RIFT VALLEY,Baringo,Table 9a: Rural Households by main mode of Human Waste Disposal,"Environment, Water and Sanitation","Environment, Water and Sanitation",35.80555092,0.745856425,"(0.745856425, 35.80555092)",246
EAST POKOT,Rural,0%,0%,0.1%,0.3%,5%,0%,94.5%,0.1%,21291,0,8,11,70,1065,2,20119,16,RIFT VALLEY,Baringo,Table 9a: Rural Households by main mode of Human Waste Disposal,"Environment, Water and Sanitation","Environment, Water and Sanitation",36.01860317,1.049001072,"(1.049001072, 36.01860317)",247
KOIBATEK,Rural,0.1%,0.4%,0%,6.4%,65.1%,0%,27.8%,0.1%,26523,18,103,11,1710,17279,5,7380,17,RIFT VALLEY,Baringo,Table 9a: Rural Households by main mode of Human Waste Disposal,"Environment, Water and Sanitation","Environment, Water and Sanitation",35.86953085,0.105862677,"(0.105862677, 35.86953085)",248
ELDORET WEST,Rural,0.4%,0.2%,0%,6.1%,89.2%,0.1%,3.7%,0.3%,47151,185,117,19,2862,42047,59,1743,119,RIFT VALLEY,Uasin Gishu,Table 9a: Rural Households by main mode of Human Waste Disposal,"Environment, Water and Sanitation","Environment, Water and Sanitation",35.19163187,0.711285558,"(0.711285558, 35.19163187)",249
ELDORET EAST,Rural,0.1%,0.3%,0%,5.4%,92%,0.1%,1.9%,0.1%,30873,16,99,8,1673,28396,46,595,40,RIFT VALLEY,Uasin Gishu,Table 9a: Rural Households by main mode of Human Waste Disposal,"Environment, Water and Sanitation","Environment, Water and Sanitation",35.41893944,0.563160828,"(0.563160828, 35.41893944)",250
WARENG,Rural,0.3%,0.5%,0%,4.4%,92%,0.1%,2.2%,0.3%,27773,94,146,6,1226,25555,29,622,95,RIFT VALLEY,Uasin Gishu,Table 9a: Rural Households by main mode of Human Waste Disposal,"Environment, Water and Sanitation","Environment, Water and Sanitation",35.33850049,0.299690606,"(0.299690606, 35.33850049)",251
MARAKWET,Rural,0%,0.1%,0%,0.8%,73.5%,0%,25.4%,0%,37581,11,30,17,312,27626,13,9563,9,RIFT VALLEY,Elgeyo Marakwet,Table 9a: Rural Households by main mode of Human Waste Disposal,"Environment, Water and Sanitation","Environment, Water and Sanitation",35.50699822,1.08405524,"(1.08405524, 35.50699822)",252
KEIYO,Rural,0.6%,0.2%,0%,3.1%,81.2%,0.1%,14.8%,0.1%,28369,176,53,10,868,23031,24,4187,20,RIFT VALLEY,Elgeyo Marakwet,Table 9a: Rural Households by main mode of Human Waste Disposal,"Environment, Water and Sanitation","Environment, Water and Sanitation",35.57039657,0.489045271,"(0.489045271, 35.57039657)",253
NANDI NORTH,Rural,0.1%,0.1%,0%,4.3%,89.6%,0%,5.4%,0.4%,31106,36,35,10,1329,27869,9,1688,130,RIFT VALLEY,Nandi,Table 9a: Rural Households by main mode of Human Waste Disposal,"Environment, Water and Sanitation","Environment, Water and Sanitation",35.06077368,0.438611778,"(0.438611778, 35.06077368)",254
NANDI CENTRAL,Rural,0.1%,0.1%,0.1%,5.3%,91.6%,0%,2.7%,0.1%,28367,18,33,16,1507,25976,12,771,34,RIFT VALLEY,Nandi,Table 9a: Rural Households by main mode of Human Waste Disposal,"Environment, Water and Sanitation","Environment, Water and Sanitation",35.08490348,0.237462739,"(0.237462739, 35.08490348)",255
NANDI EAST,Rural,0.1%,0.5%,0.1%,9.2%,85.3%,0.1%,4.7%,0%,25598,19,129,33,2359,21825,14,1208,11,RIFT VALLEY,Nandi,Table 9a: Rural Households by main mode of Human Waste Disposal,"Environment, Water and Sanitation","Environment, Water and Sanitation",35.23779105,0.105368029,"(0.105368029, 35.23779105)",256
NANDI SOUTH,Rural,0%,0.1%,0%,10%,83.3%,0%,6.3%,0.2%,30768,5,33,11,3088,25630,9,1938,54,RIFT VALLEY,Nandi,Table 9a: Rural Households by main mode of Human Waste Disposal,"Environment, Water and Sanitation","Environment, Water and Sanitation",34.96800793,0.048811478,"(0.048811478, 34.96800793)",257
TINDERET,Rural,0.1%,0.4%,0%,1%,89.1%,0%,9.3%,0.1%,14489,19,52,3,150,12908,1,1343,13,RIFT VALLEY,Nandi,Table 9a: Rural Households by main mode of Human Waste Disposal,"Environment, Water and Sanitation","Environment, Water and Sanitation",35.3167413,-0.013491939,"(-0.013491939, 35.3167413)",258
LAIKIPIA NORTH,Rural,0.1%,1.4%,0%,2%,23.4%,0%,72.9%,0%,6360,6,91,2,130,1491,1,4638,1,RIFT VALLEY,Laikipia,Table 9a: Rural Households by main mode of Human Waste Disposal,"Environment, Water and Sanitation","Environment, Water and Sanitation",36.99627658,0.515458301,"(0.515458301, 36.99627658)",259
LAIKIPIA EAST,Rural,0.1%,0.9%,0.1%,3.7%,88.8%,0.1%,6.3%,0.1%,26516,27,238,19,978,23543,14,1668,29,RIFT VALLEY,Laikipia,Table 9a: Rural Households by main mode of Human Waste Disposal,"Environment, Water and Sanitation","Environment, Water and Sanitation",36.95183375,0.093934415,"(0.093934415, 36.95183375)",260
LAIKIPIA WEST,Rural,0.2%,0.3%,0.1%,3.7%,83.7%,0.1%,11.9%,0%,40973,80,141,24,1512,34284,22,4892,18,RIFT VALLEY,Laikipia,Table 9a: Rural Households by main mode of Human Waste Disposal,"Environment, Water and Sanitation","Environment, Water and Sanitation",36.5181069,0.39729996,"(0.39729996, 36.5181069)",261
NAKURU,Rural,0.3%,1.4%,0.1%,11.8%,74.8%,0%,11.4%,0.2%,33709,104,466,27,3972,25209,13,3844,74,RIFT VALLEY,Nakuru,Table 9a: Rural Households by main mode of Human Waste Disposal,"Environment, Water and Sanitation","Environment, Water and Sanitation",36.03461164,-0.134672183,"(-0.134672183, 36.03461164)",262
NAKURU NORTH,Rural,0.2%,0.6%,0.1%,4%,94.6%,0.1%,0.4%,0.1%,31938,63,180,33,1269,30203,22,137,31,RIFT VALLEY,Nakuru,Table 9a: Rural Households by main mode of Human Waste Disposal,"Environment, Water and Sanitation","Environment, Water and Sanitation",36.16401596,-0.135028953,"(-0.135028953, 36.16401596)",263
NAIVASHA,Rural,0.3%,2%,0.4%,4.8%,87.3%,0%,5.1%,0.1%,36293,121,722,137,1751,31673,18,1834,37,RIFT VALLEY,Nakuru,Table 9a: Rural Households by main mode of Human Waste Disposal,"Environment, Water and Sanitation","Environment, Water and Sanitation",36.33344468,-0.727134387,"(-0.727134387, 36.33344468)",264
MOLO,Rural,0.4%,0.3%,0%,3.1%,90.9%,0.1%,5.1%,0.1%,94283,370,246,46,2951,85688,84,4826,72,RIFT VALLEY,Nakuru,Table 9a: Rural Households by main mode of Human Waste Disposal,"Environment, Water and Sanitation","Environment, Water and Sanitation",35.75756717,-0.409755795,"(-0.409755795, 35.75756717)",265
NAROK NORTH,Rural,0%,0.2%,0%,2.4%,46.6%,0%,50.6%,0.2%,42982,12,93,17,1023,20029,9,21733,66,RIFT VALLEY,Narok,Table 9a: Rural Households by main mode of Human Waste Disposal,"Environment, Water and Sanitation","Environment, Water and Sanitation",35.99464674,-0.959555087,"(-0.959555087, 35.99464674)",266
NAROK SOUTH,Rural,0.6%,0.5%,0.1%,2%,39.9%,0%,56.8%,0.1%,62412,344,324,43,1253,24885,16,35464,83,RIFT VALLEY,Narok,Table 9a: Rural Households by main mode of Human Waste Disposal,"Environment, Water and Sanitation","Environment, Water and Sanitation",35.5807782,-1.402738483,"(-1.402738483, 35.5807782)",267
TRANS MARA,Rural,0.5%,0.2%,0.1%,2%,45.9%,0.2%,51.1%,0.1%,47324,219,71,42,938,21713,89,24193,59,RIFT VALLEY,Narok,Table 9a: Rural Households by main mode of Human Waste Disposal,"Environment, Water and Sanitation","Environment, Water and Sanitation",34.89742997,-1.159714592,"(-1.159714592, 34.89742997)",268
KAJIADO CENTRAL,Rural,0%,0.6%,0.1%,1.5%,23.6%,0%,73.9%,0.1%,26352,12,167,32,398,6224,7,19476,36,RIFT VALLEY,Kajiado,Table 9a: Rural Households by main mode of Human Waste Disposal,"Environment, Water and Sanitation","Environment, Water and Sanitation",36.89341002,-2.133910157,"(-2.133910157, 36.89341002)",269
LOITOKITOK,Rural,0.3%,0.3%,0.1%,2.3%,48.8%,0%,47.6%,0.6%,25565,79,73,18,600,12467,5,12180,143,RIFT VALLEY,Kajiado,Table 9a: Rural Households by main mode of Human Waste Disposal,"Environment, Water and Sanitation","Environment, Water and Sanitation",37.47875865,-2.635934635,"(-2.635934635, 37.47875865)",270
KERICHO,Rural,0.1%,0.5%,0.1%,2.1%,82.8%,0.1%,14.2%,0%,53136,73,264,31,1139,43998,57,7550,24,RIFT VALLEY,Kericho,Table 9a: Rural Households by main mode of Human Waste Disposal,"Environment, Water and Sanitation","Environment, Water and Sanitation",35.21130866,-0.34219841,"(-0.34219841, 35.21130866)",271
KIPKELION,Rural,0%,0.7%,0%,1.9%,89.9%,0%,7.5%,0%,23675,10,160,4,444,21276,10,1768,3,RIFT VALLEY,Kericho,Table 9a: Rural Households by main mode of Human Waste Disposal,"Environment, Water and Sanitation","Environment, Water and Sanitation",35.47881562,-0.155533799,"(-0.155533799, 35.47881562)",272
BURET,Rural,0.4%,0.3%,0%,2.5%,94.9%,0.1%,1.8%,0%,58138,207,162,28,1466,55171,50,1037,17,RIFT VALLEY,Bomet,Table 9a: Rural Households by main mode of Human Waste Disposal,"Environment, Water and Sanitation","Environment, Water and Sanitation",35.3033778,-0.547074877,"(-0.547074877, 35.3033778)",273
SOTIK,Rural,0.3%,0.2%,0%,2.3%,94.1%,0%,3%,0.1%,33625,104,58,10,765,31625,9,1024,30,RIFT VALLEY,Bomet,Table 9a: Rural Households by main mode of Human Waste Disposal,"Environment, Water and Sanitation","Environment, Water and Sanitation",35.1490337,-0.759704345,"(-0.759704345, 35.1490337)",274
BOMET,Rural,0.1%,0.1%,0.1%,1.7%,88.2%,0%,9.8%,0.1%,56084,34,34,72,931,49458,22,5490,43,RIFT VALLEY,Bomet,Table 9a: Rural Households by main mode of Human Waste Disposal,"Environment, Water and Sanitation","Environment, Water and Sanitation",35.31899335,-0.840969003,"(-0.840969003, 35.31899335)",275
KAJIADO NORTH,Rural,0.7%,5.9%,0.3%,5%,54.1%,0.1%,33.7%,0.2%,34427,226,2035,103,1728,18628,38,11604,65,RIFT VALLEY,Kajiado,Table 9a: Rural Households by main mode of Human Waste Disposal,"Environment, Water and Sanitation","Environment, Water and Sanitation",36.44660994,-1.646437311,"(-1.646437311, 36.44660994)",276
KAKAMEGA CENTRAL,Urban,10.5%,7.5%,0.4%,6.3%,74.7%,0.4%,0.3%,0%,23769,2502,1776,90,1492,17746,87,71,5,WESTERN,Kakamega,Table 9a: Rural Households by main mode of Human Waste Disposal,"Environment, Water and Sanitation","Environment, Water and Sanitation",34.6856109,0.350512813,"(0.350512813, 34.6856109)",277
KAKAMEGA SOUTH,Urban,,,,,,,,,0,0,0,0,0,0,0,0,0,WESTERN,Kakamega,Table 9a: Rural Households by main mode of Human Waste Disposal,"Environment, Water and Sanitation","Environment, Water and Sanitation",34.7077479,0.190561619,"(0.190561619, 34.7077479)",278
KAKAMEGA NORTH,Urban,0.4%,2.6%,0%,20.1%,76.1%,0.1%,0.6%,0.1%,1231,5,32,0,248,937,1,7,1,WESTERN,Kakamega,Table 9a: Rural Households by main mode of Human Waste Disposal,"Environment, Water and Sanitation","Environment, Water and Sanitation",34.82641205,0.473620028,"(0.473620028, 34.82641205)",279
KAKAMEGA EAST,Urban,0%,1.7%,0%,6.4%,91.9%,0%,0%,0%,516,0,9,0,33,474,0,0,0,WESTERN,Kakamega,Table 9a: Rural Households by main mode of Human Waste Disposal,"Environment, Water and Sanitation","Environment, Water and Sanitation",34.85789384,0.273804872,"(0.273804872, 34.85789384)",280
LUGARI,Urban,0.1%,0.8%,0.1%,19%,78.8%,0.1%,0.8%,0.2%,4796,6,40,6,913,3778,5,38,10,WESTERN,Kakamega,Table 9a: Rural Households by main mode of Human Waste Disposal,"Environment, Water and Sanitation","Environment, Water and Sanitation",35.02947866,0.723211024,"(0.723211024, 35.02947866)",281
VIHIGA,Urban,1%,0.6%,0.1%,10.7%,87.2%,0.1%,0.3%,0%,27576,270,154,28,2964,24034,18,95,13,WESTERN,Vihiga,Table 9a: Rural Households by main mode of Human Waste Disposal,"Environment, Water and Sanitation","Environment, Water and Sanitation",34.72682968,0.079761357,"(0.079761357, 34.72682968)",282
EMUHAYA,Urban,0.1%,0.1%,0.1%,4.4%,94.4%,0%,0.7%,0.1%,11648,6,15,12,512,10999,5,83,16,WESTERN,Vihiga,Table 9a: Rural Households by main mode of Human Waste Disposal,"Environment, Water and Sanitation","Environment, Water and Sanitation",34.60778185,0.057677852,"(0.057677852, 34.60778185)",283
MUMIAS,Urban,8.2%,1.4%,0.1%,5.9%,82.5%,0.1%,1.8%,0.2%,27955,2281,379,14,1655,23066,23,491,46,WESTERN,Kakamega,Table 9a: Rural Households by main mode of Human Waste Disposal,"Environment, Water and Sanitation","Environment, Water and Sanitation",34.48762031,0.35427418,"(0.35427418, 34.48762031)",284
BUTERE,Urban,0.1%,1.4%,0.4%,6.6%,90.6%,0%,0.8%,0.1%,2923,3,42,11,193,2648,0,24,2,WESTERN,Kakamega,Table 9a: Rural Households by main mode of Human Waste Disposal,"Environment, Water and Sanitation","Environment, Water and Sanitation",34.54564535,0.192421093,"(0.192421093, 34.54564535)",285
BUNGOMA SOUTH,Urban,1.5%,4.3%,0.5%,7.6%,84.7%,0.3%,0.9%,0.2%,22015,323,953,107,1682,18640,66,202,42,WESTERN,Bungoma,Table 9a: Rural Households by main mode of Human Waste Disposal,"Environment, Water and Sanitation","Environment, Water and Sanitation",34.52131934,0.56139561,"(0.56139561, 34.52131934)",286
BUNGOMA NORTH,Urban,0.6%,1.6%,0.2%,7.2%,88.7%,0.2%,1.4%,0.2%,19571,122,304,33,1401,17361,34,278,38,WESTERN,Bungoma,Table 9a: Rural Households by main mode of Human Waste Disposal,"Environment, Water and Sanitation","Environment, Water and Sanitation",34.86452529,0.783636675,"(0.783636675, 34.86452529)",287
BUNGOMA EAST,Urban,9%,3.7%,0.4%,7.3%,77.8%,0.1%,1.4%,0.3%,13973,1253,513,55,1016,10877,18,200,41,WESTERN,Bungoma,Table 9a: Rural Households by main mode of Human Waste Disposal,"Environment, Water and Sanitation","Environment, Water and Sanitation",34.73645726,0.63973936,"(0.63973936, 34.73645726)",288
BUNGOMA WEST,Urban,0.3%,0.3%,0.2%,4.5%,89.6%,0.2%,4.9%,0.1%,7491,22,19,14,338,6709,14,366,9,WESTERN,Bungoma,Table 9a: Rural Households by main mode of Human Waste Disposal,"Environment, Water and Sanitation","Environment, Water and Sanitation",34.54143282,0.718594776,"(0.718594776, 34.54143282)",289
MT. ELGON,Urban,0.1%,2%,0%,20.3%,76.4%,0%,1.1%,0%,2296,3,46,0,467,1754,0,26,0,WESTERN,Bungoma,Table 9a: Rural Households by main mode of Human Waste Disposal,"Environment, Water and Sanitation","Environment, Water and Sanitation",34.59729929,0.928746904,"(0.928746904, 34.59729929)",290
BUSIA,Urban,2.4%,2.3%,0.1%,10.2%,83.4%,0.2%,1.4%,0.1%,10571,255,238,6,1074,8814,20,151,13,WESTERN,Busia,Table 9a: Rural Households by main mode of Human Waste Disposal,"Environment, Water and Sanitation","Environment, Water and Sanitation",34.26474625,0.413063265,"(0.413063265, 34.26474625)",291
TESO NORTH,Urban,0.2%,2%,0.6%,4.2%,89.5%,0.3%,3.2%,0.1%,9941,16,197,56,422,8895,29,315,11,WESTERN,Busia,Table 9a: Rural Households by main mode of Human Waste Disposal,"Environment, Water and Sanitation","Environment, Water and Sanitation",34.34692124,0.685653144,"(0.685653144, 34.34692124)",292
SAMIA,Urban,,,,,,,,,0,0,0,0,0,0,0,0,0,WESTERN,Busia,Table 9a: Rural Households by main mode of Human Waste Disposal,"Environment, Water and Sanitation","Environment, Water and Sanitation",34.08114406,0.249684994,"(0.249684994, 34.08114406)",293
BUNYALA,Urban,0.1%,2.1%,0%,6.5%,87%,0.2%,4%,0.1%,1710,2,36,0,112,1487,3,69,1,WESTERN,Busia,Table 9a: Rural Households by main mode of Human Waste Disposal,"Environment, Water and Sanitation","Environment, Water and Sanitation",34.02046792,0.085563847,"(0.085563847, 34.02046792)",294
TESO SOUTH,Urban,3.6%,3%,0.6%,11.1%,79.4%,0.1%,2.2%,0.1%,6026,217,183,34,666,4782,5,130,9,WESTERN,Busia,Table 9a: Rural Households by main mode of Human Waste Disposal,"Environment, Water and Sanitation","Environment, Water and Sanitation",34.22063324,0.545069632,"(0.545069632, 34.22063324)",295
KAKAMEGA CENTRAL,Rural,0.4%,0.2%,0.1%,6.8%,90.9%,0.1%,1.2%,0.3%,41352,179,87,33,2801,37601,28,514,109,WESTERN,Kakamega,Table 9a: Rural Households by main mode of Human Waste Disposal,"Environment, Water and Sanitation","Environment, Water and Sanitation",34.6856109,0.350512813,"(0.350512813, 34.6856109)",296
KAKAMEGA SOUTH,Rural,0.2%,0.2%,0.1%,6%,92.2%,0%,1.2%,0.1%,23144,52,52,16,1387,21340,3,273,21,WESTERN,Kakamega,Table 9a: Rural Households by main mode of Human Waste Disposal,"Environment, Water and Sanitation","Environment, Water and Sanitation",34.7077479,0.190561619,"(0.190561619, 34.7077479)",297
KAKAMEGA NORTH,Rural,0.2%,0.2%,0%,4.7%,93.8%,0%,0.9%,0.1%,39404,75,75,17,1835,36956,18,371,57,WESTERN,Kakamega,Table 9a: Rural Households by main mode of Human Waste Disposal,"Environment, Water and Sanitation","Environment, Water and Sanitation",34.82641205,0.473620028,"(0.473620028, 34.82641205)",298
KAKAMEGA EAST,Rural,0.1%,0.7%,0.1%,4.3%,93.8%,0.1%,0.8%,0.2%,33661,33,231,18,1439,31569,21,276,74,WESTERN,Kakamega,Table 9a: Rural Households by main mode of Human Waste Disposal,"Environment, Water and Sanitation","Environment, Water and Sanitation",34.85789384,0.273804872,"(0.273804872, 34.85789384)",299
LUGARI,Rural,0.1%,0.1%,0%,8.5%,90.3%,0.1%,0.8%,0.2%,54680,37,58,27,4625,49353,70,426,84,WESTERN,Kakamega,Table 9a: Rural Households by main mode of Human Waste Disposal,"Environment, Water and Sanitation","Environment, Water and Sanitation",35.02947866,0.723211024,"(0.723211024, 35.02947866)",300
VIHIGA,Rural,0.1%,0.1%,0%,9.7%,89.5%,0%,0.4%,0.1%,20645,15,17,7,2007,18487,3,84,25,WESTERN,Vihiga,Table 9a: Rural Households by main mode of Human Waste Disposal,"Environment, Water and Sanitation","Environment, Water and Sanitation",34.72682968,0.079761357,"(0.079761357, 34.72682968)",301
EMUHAYA,Rural,0.2%,0.1%,0.1%,6%,92.6%,0%,1%,0.1%,31382,50,23,21,1884,29064,11,301,28,WESTERN,Vihiga,Table 9a: Rural Households by main mode of Human Waste Disposal,"Environment, Water and Sanitation","Environment, Water and Sanitation",34.60778185,0.057677852,"(0.057677852, 34.60778185)",302
HAMISI,Rural,0.1%,0.2%,0%,6.2%,92.3%,0.1%,1.1%,0%,32096,33,66,10,1975,29633,18,345,16,WESTERN,Vihiga,Table 9a: Rural Households by main mode of Human Waste Disposal,"Environment, Water and Sanitation","Environment, Water and Sanitation",34.82143608,0.099070606,"(0.099070606, 34.82143608)",303
MUMIAS,Rural,0.1%,0.1%,0.2%,3.6%,92.8%,0.1%,3%,0.1%,50730,76,37,90,1809,47082,58,1521,57,WESTERN,Kakamega,Table 9a: Rural Households by main mode of Human Waste Disposal,"Environment, Water and Sanitation","Environment, Water and Sanitation",34.48762031,0.35427418,"(0.35427418, 34.48762031)",304
BUTERE,Rural,0%,0.1%,0.3%,4.6%,92.9%,0%,1.8%,0.2%,51518,23,61,144,2385,47850,22,929,104,WESTERN,Kakamega,Table 9a: Rural Households by main mode of Human Waste Disposal,"Environment, Water and Sanitation","Environment, Water and Sanitation",34.54564535,0.192421093,"(0.192421093, 34.54564535)",305
BUNGOMA SOUTH,Rural,0.2%,0.2%,0%,2.4%,91.5%,0.1%,5.3%,0.2%,61280,138,117,28,1475,56097,64,3231,130,WESTERN,Bungoma,Table 9a: Rural Households by main mode of Human Waste Disposal,"Environment, Water and Sanitation","Environment, Water and Sanitation",34.52131934,0.56139561,"(0.56139561, 34.52131934)",306
BUNGOMA NORTH,Rural,0.1%,0.1%,0%,5.9%,92.1%,0.1%,1.4%,0.3%,41915,38,59,12,2475,38583,46,575,127,WESTERN,Bungoma,Table 9a: Rural Households by main mode of Human Waste Disposal,"Environment, Water and Sanitation","Environment, Water and Sanitation",34.86452529,0.783636675,"(0.783636675, 34.86452529)",307
BUNGOMA EAST,Rural,0%,0.1%,0%,3.6%,93.9%,0.1%,1.9%,0.3%,31961,11,32,10,1151,30016,19,611,111,WESTERN,Bungoma,Table 9a: Rural Households by main mode of Human Waste Disposal,"Environment, Water and Sanitation","Environment, Water and Sanitation",34.73645726,0.63973936,"(0.63973936, 34.73645726)",308
BUNGOMA WEST,Rural,0%,0.1%,0%,3.3%,91.6%,0.1%,4.5%,0.4%,40157,16,35,16,1320,36770,36,1806,158,WESTERN,Bungoma,Table 9a: Rural Households by main mode of Human Waste Disposal,"Environment, Water and Sanitation","Environment, Water and Sanitation",34.54143282,0.718594776,"(0.718594776, 34.54143282)",309
MT. ELGON,Rural,0%,0%,0%,1.8%,95.3%,0%,2.5%,0.3%,30165,10,8,7,531,28751,6,765,87,WESTERN,Bungoma,Table 9a: Rural Households by main mode of Human Waste Disposal,"Environment, Water and Sanitation","Environment, Water and Sanitation",34.59729929,0.928746904,"(0.928746904, 34.59729929)",310
BUSIA,Rural,0%,0.1%,0.1%,3.9%,90.1%,0.1%,5.6%,0.1%,58210,26,43,36,2297,52421,47,3254,86,WESTERN,Busia,Table 9a: Rural Households by main mode of Human Waste Disposal,"Environment, Water and Sanitation","Environment, Water and Sanitation",34.26474625,0.413063265,"(0.413063265, 34.26474625)",311
TESO NORTH,Rural,0%,0.1%,0%,3.7%,92.2%,0%,3.7%,0.2%,13491,2,8,3,505,12445,5,497,26,WESTERN,Busia,Table 9a: Rural Households by main mode of Human Waste Disposal,"Environment, Water and Sanitation","Environment, Water and Sanitation",34.34692124,0.685653144,"(0.685653144, 34.34692124)",312
SAMIA,Rural,0.1%,0.2%,0.1%,4.7%,83.8%,0%,10.8%,0.2%,19395,22,43,28,907,16258,6,2086,45,WESTERN,Busia,Table 9a: Rural Households by main mode of Human Waste Disposal,"Environment, Water and Sanitation","Environment, Water and Sanitation",34.08114406,0.249684994,"(0.249684994, 34.08114406)",313
BUNYALA,Rural,0%,0.2%,0.1%,3.4%,66.4%,0.1%,29.7%,0.1%,13535,1,26,9,461,8982,11,4025,20,WESTERN,Busia,Table 9a: Rural Households by main mode of Human Waste Disposal,"Environment, Water and Sanitation","Environment, Water and Sanitation",34.02046792,0.085563847,"(0.085563847, 34.02046792)",314
TESO SOUTH,Rural,0%,0.2%,0%,2.5%,90.1%,0%,7.1%,0.1%,21346,4,34,6,541,19234,9,1506,12,WESTERN,Busia,Table 9a: Rural Households by main mode of Human Waste Disposal,"Environment, Water and Sanitation","Environment, Water and Sanitation",34.22063324,0.545069632,"(0.545069632, 34.22063324)",315
